{"type":"FeatureCollection","features":[{"type":"Feature","geometry":{"coordinates":[[11.265959,44.5226986]],"type":"MultiPoint"},"properties":{"biblioteca":"Biblioteca Borgo Panigale","tipologia":"U.I. Biblioteche di pubblica lettura","indirizzo":"Via Legnano, 2 40132 Bologna BO","quartiere":"Borgo Panigale - Reno","rete_wi_fi":"s\u00ec","fasciatoio":"s\u00ec","newsletter":"s\u00ec","telefono":"051404930","email":"bibliotecaborgopanigale@comune.bologna.it","pagina_web":"https:\/\/www.bibliotechebologna.it\/objects\/biblioteca-borgo-panigale","sito_web":null,"geo_point_2d":{"lon":11.265959,"lat":44.5226986},"descrizion":"Biblioteca di pubblica lettura ubicata nel Quartiere Borgo Panigale-Reno. Propone letture animate e laboratori per bambini, visite guidate e prestito librario per le classi. Attualmente sono attivi due gruppi di lettura di cui uno per adolescenti, un lab","superficie":"830","superfic_1":"718","n_postazio":"80","accessibil":"s\u00ec","servizi_ig":"s\u00ec","aria_condi":"s\u00ec","servizio_f":"no","area_bambi":"s\u00ec","pagina_fac":"https:\/\/www.facebook.com\/bibliotecaborgopanigale","pagina_twi":null,"pagina_ins":null,"pagina_you":null,"area_stati":"DUCATI-VILLAGGIO INA","zona_pross":"BORGO PANIGALE"}},{"type":"Feature","geometry":{"coordinates":[[11.328296,44.502343]],"type":"MultiPoint"},"properties":{"biblioteca":"Biblioteca Jorge Luis Borges","tipologia":"U.I. Biblioteche di pubblica lettura","indirizzo":"Via dello Scalo, 21\/2 40131 Bologna BO","quartiere":"Porto - Saragozza","rete_wi_fi":"s\u00ec","fasciatoio":"s\u00ec","newsletter":"s\u00ec","telefono":"0512197770","email":"bibliotecaborges@comune.bologna.it","pagina_web":"https:\/\/www.bibliotechebologna.it\/objects\/biblioteca-jorge-luis-borges","sito_web":null,"geo_point_2d":{"lon":11.328296,"lat":44.502343},"descrizion":"La Biblioteca Borges \u00e8 una biblioteca di pubblica lettura nata all\u2019interno della struttura dell\u2019antico mercato del bestiame della citt\u00e0 di Bologna. La biblioteca Borges \u00e8 una delle due biblioteche del Quartiere Porto-Saragozza. Il riferimento al nome \"Po","superficie":"2204","superfic_1":"1104","n_postazio":"102","accessibil":"s\u00ec","servizi_ig":"s\u00ec","aria_condi":"s\u00ec","servizio_f":"s\u00ec","area_bambi":"s\u00ec","pagina_fac":"https:\/\/www.facebook.com\/bibliotecaborgesbologna","pagina_twi":null,"pagina_ins":null,"pagina_you":null,"area_stati":"ZANARDI","zona_pross":"SAFFI"}},{"type":"Feature","geometry":{"coordinates":[[11.343657,44.491964]],"type":"MultiPoint"},"properties":{"biblioteca":"Biblioteca dell'Archiginnasio","tipologia":"U.I. Biblioteche di ricerca e conservazione","indirizzo":"Piazza Galvani, 1 40124 Bologna BO","quartiere":"Santo Stefano","rete_wi_fi":"s\u00ec","fasciatoio":"no","newsletter":"s\u00ec","telefono":"051276811","email":"archiginnasio@comune.bologna.it","pagina_web":"https:\/\/www.bibliotechebologna.it\/biblioteche\/biblioteca-dell-archiginnasio","sito_web":"http:\/\/www.archiginnasio.it\/","geo_point_2d":{"lon":11.343657,"lat":44.491964},"descrizion":"La Biblioteca dell\u2019Archiginnasio ha sede nel cinquecentesco palazzo che ospit\u00f2 l\u2019Universit\u00e0 di Bologna dal 1563 al 1803. \u00c8 la biblioteca civica pi\u00f9 importante d\u2019Italia per il valore e la consistenza del suo patrimonio bibliografico, documentario e artist","superficie":"7500","superfic_1":"1512","n_postazio":"220","accessibil":"s\u00ec","servizi_ig":"s\u00ec","aria_condi":"s\u00ec","servizio_f":"s\u00ec","area_bambi":"no","pagina_fac":"https:\/\/www.facebook.com\/archiginnasiobologna","pagina_twi":null,"pagina_ins":null,"pagina_you":"https:\/\/www.youtube.com\/Archiginnasio","area_stati":"GALVANI-1","zona_pross":"GALVANI"}},{"type":"Feature","geometry":{"coordinates":[[11.383378,44.496762]],"type":"MultiPoint"},"properties":{"biblioteca":"Biblioteca Scandellara-Mirella Bartolotti","tipologia":"U.I. Biblioteche di pubblica lettura","indirizzo":"Via Scandellara, 50, 40138 Bologna BO","quartiere":"San Donato - San Vitale","rete_wi_fi":"s\u00ec","fasciatoio":"s\u00ec","newsletter":"s\u00ec","telefono":"0512194301","email":"bibliotecascandellara@comune.bologna.it","pagina_web":"https:\/\/www.bibliotechebologna.it\/objects\/biblioteca-scandellara-mirella-bartolotti","sito_web":null,"geo_point_2d":{"lon":11.383378,"lat":44.496762},"descrizion":"Biblioteca di pubblica lettura nel territorio del Quartiere San Donato-San Vitale. Organizza attivit\u00e0 per le scuole - prestito,  bibliografie, laboratori, incontri con autori, ricerche - e promuove la lettura fin dai primi anni di vita, con un'ampia disp","superficie":"256","superfic_1":"238","n_postazio":"40","accessibil":"s\u00ec","servizi_ig":"s\u00ec","aria_condi":"s\u00ec","servizio_f":"s\u00ec","area_bambi":"s\u00ec","pagina_fac":"https:\/\/www.facebook.com\/bibliotecascandellara","pagina_twi":null,"pagina_ins":null,"pagina_you":null,"area_stati":"SCANDELLARA","zona_pross":"CIRENAICA - MASSARENTI - SCANDELLARA"}},{"type":"Feature","geometry":{"coordinates":[[11.3419323,44.4946348]],"type":"MultiPoint"},"properties":{"biblioteca":"Biblioteca di Salaborsa","tipologia":"U.I. Biblioteche di pubblica lettura","indirizzo":"Piazza del Nettuno, 3, 40124 Bologna BO","quartiere":"Porto - Saragozza","rete_wi_fi":"s\u00ec","fasciatoio":"s\u00ec","newsletter":"s\u00ec","telefono":"0512194400","email":"bibliotecasalaborsa@comune.bologna.it","pagina_web":"https:\/\/www.bibliotechebologna.it\/biblioteche\/biblioteca-salaborsa","sito_web":"https:\/\/www.bibliotecasalaborsa.it\/","geo_point_2d":{"lon":11.3419323,"lat":44.4946348},"descrizion":"Salaborsa \u00e8 una biblioteca multimediale di informazione generale che intende documentare la cultura contemporanea attraverso tutti i documenti disponibili: libri, giornali, riviste, mappe, video, cd audio, cd-rom, dvd. \u00c8 dotata di una infrastruttura ad a","superficie":"6850","superfic_1":"4896","n_postazio":"284","accessibil":"s\u00ec","servizi_ig":"s\u00ec","aria_condi":"s\u00ec","servizio_f":"s\u00ec","area_bambi":"s\u00ec","pagina_fac":"https:\/\/www.facebook.com\/bibliotecasalaborsa","pagina_twi":"https:\/\/twitter.com\/BiblioSalaborsa","pagina_ins":null,"pagina_you":null,"area_stati":"MALPIGHI-1","zona_pross":"MALPIGHI"}},{"type":"Feature","geometry":{"coordinates":[[11.2967869,44.5021294]],"type":"MultiPoint"},"properties":{"biblioteca":"Biblioteca Orlando Pezzoli","tipologia":"U.I. Biblioteche di pubblica lettura","indirizzo":"Via Battindarno, 123, 40133 Bologna BO","quartiere":"Borgo Panigale - Reno","rete_wi_fi":"s\u00ec","fasciatoio":"no","newsletter":"s\u00ec","telefono":"0512197544","email":"bibliotecapezzoli@comune.bologna.it","pagina_web":"https:\/\/www.bibliotechebologna.it\/objects\/biblioteca-orlando-pezzoli","sito_web":null,"geo_point_2d":{"lon":11.2967869,"lat":44.5021294},"descrizion":"Biblioteca di pubblica lettura del Quartiere Borgo Panigale-Reno, intitolata al maestro e partigiano Orlando Pezzoli (Castel Maggiore, 1922), storico della vita culturale del quartiere. La biblioteca \u00e8 ospitata al 2\u00b0 piano dell\u2019edificio dove ha sede il Q","superficie":"971","superfic_1":"900","n_postazio":"140","accessibil":"s\u00ec","servizi_ig":"s\u00ec","aria_condi":"s\u00ec","servizio_f":"s\u00ec","area_bambi":"s\u00ec","pagina_fac":"https:\/\/www.facebook.com\/bibliotecaorlandopezzolibologna","pagina_twi":null,"pagina_ins":null,"pagina_you":null,"area_stati":"BATTINDARNO","zona_pross":"BARCA"}},{"type":"Feature","geometry":{"coordinates":[[11.355717,44.488435]],"type":"MultiPoint"},"properties":{"biblioteca":"Biblioteca Italiana delle Donne","tipologia":"U.I. Biblioteche di pubblica lettura","indirizzo":"Via del Piombo, 5 40125 Bologna BO","quartiere":"Santo Stefano","rete_wi_fi":"s\u00ec","fasciatoio":"no","newsletter":"s\u00ec","telefono":"0514299411","email":"bibliotecadelledonne@women.it","pagina_web":"https:\/\/www.bibliotechebologna.it\/objects\/biblioteca-italiana-delle-donne","sito_web":"https:\/\/bibliotecadelledonne.women.it\/","geo_point_2d":{"lon":11.355717,"lat":44.488435},"descrizion":"La Biblioteca Italiana delle Donne ha sede nell'ex convento di Santa Cristina ed \u00e8 oggi in Italia la pi\u00f9 importante biblioteca specializzata in cultura femminile, studi di genere e femminismo. Nata alla fine degli anni Settanta per iniziativa di un'assoc","superficie":"660","superfic_1":"520","n_postazio":"47","accessibil":"s\u00ec","servizi_ig":"s\u00ec","aria_condi":"no","servizio_f":"s\u00ec","area_bambi":"no","pagina_fac":"https:\/\/www.facebook.com\/centrodonne","pagina_twi":null,"pagina_ins":"https:\/\/www.instagram.com\/centrodelledonnedibologna\/","pagina_you":null,"area_stati":"GALVANI-2","zona_pross":"GALVANI"}},{"type":"Feature","geometry":{"coordinates":[[11.329675,44.5184694]],"type":"MultiPoint"},"properties":{"biblioteca":"Biblioteca Lame-Cesare Malservisi","tipologia":"U.I. Biblioteche di pubblica lettura","indirizzo":"Via Marco Polo, 21\/13 40131 Bologna BO","quartiere":"Navile","rete_wi_fi":"s\u00ec","fasciatoio":"no","newsletter":"s\u00ec","telefono":"0516350948","email":"bibliotecalame@comune.bologna.it","pagina_web":"https:\/\/www.bibliotechebologna.it\/objects\/biblioteca-lame-cesare-malservisi","sito_web":null,"geo_point_2d":{"lon":11.329675,"lat":44.5184694},"descrizion":"Biblioteca di pubblica lettura ubicata nel Quartiere Navile. Organizza attivit\u00e0 di promozione della lettura in collegamento con le scuole, visite guidate e prestito librario alle classi, incontri sulla storia dell'arte, visite guidate a mostre e monument","superficie":"476","superfic_1":"456","n_postazio":"50","accessibil":"s\u00ec","servizi_ig":"s\u00ec","aria_condi":"no","servizio_f":"s\u00ec","area_bambi":"s\u00ec","pagina_fac":"https:\/\/www.facebook.com\/BibliotecaLameCesareMalservisi","pagina_twi":null,"pagina_ins":null,"pagina_you":null,"area_stati":"BEVERARA","zona_pross":"BEVERARA"}},{"type":"Feature","geometry":{"coordinates":[[11.315088,44.487272]],"type":"MultiPoint"},"properties":{"biblioteca":"Biblioteca Oriano Tassinari Cl\u00f2","tipologia":"U.I. Biblioteche di pubblica lettura","indirizzo":"Via di Casaglia, 7, 40135 Bologna BO","quartiere":"Porto - Saragozza","rete_wi_fi":"s\u00ec","fasciatoio":"s\u00ec","newsletter":"s\u00ec","telefono":"051434383","email":"bibliotecavillaspada@comune.bologna.it","pagina_web":"https:\/\/www.bibliotechebologna.it\/objects\/biblioteca-oriano-tassinari-clo","sito_web":null,"geo_point_2d":{"lon":11.315088,"lat":44.487272},"descrizion":"Biblioteca di pubblica lettura, dal 1998 intitolata all'insegnante, scrittore e studioso di storia bolognese Oriano Tassinari Cl\u00f2 (Bologna, 1936-1995), si trova all'interno del parco di Villa Spada, nel Quartiere Porto-Saragozza. La biblioteca offre comp","superficie":"1360","superfic_1":"1160","n_postazio":"180","accessibil":"s\u00ec","servizi_ig":"s\u00ec","aria_condi":"s\u00ec","servizio_f":"s\u00ec","area_bambi":"s\u00ec","pagina_fac":"https:\/\/www.facebook.com\/biblioteca.villaspada","pagina_twi":null,"pagina_ins":null,"pagina_you":null,"area_stati":"RAVONE","zona_pross":"SARAGOZZA - SAN LUCA"}},{"type":"Feature","geometry":{"coordinates":[[11.357348,44.488117]],"type":"MultiPoint"},"properties":{"biblioteca":"Biblioteca-archivio di Casa Carducci","tipologia":"U.I. Biblioteche di ricerca e conservazione","indirizzo":"Piazza Giosu\u00e8 Carducci, 5, 40125 Bologna BO","quartiere":"Santo Stefano","rete_wi_fi":"s\u00ec","fasciatoio":"no","newsletter":"s\u00ec","telefono":"051347592","email":"casacarducci@comune.bologna.it","pagina_web":"https:\/\/www.bibliotechebologna.it\/objects\/casa-carducci-library","sito_web":"http:\/\/www.casacarducci.it\/","geo_point_2d":{"lon":11.357348,"lat":44.488117},"descrizion":"Situato sull'antica cinta muraria fra la porta Maggiore e porta Santo Stefano, l'edificio risale al primo decennio del XVI secolo. In origine era un luogo di culto (chiesa e oratorio). Dopo il 1800 lo stabile fu trasformato in casa d\u2019abitazione e, dal 18","superficie":"218","superfic_1":"143","n_postazio":"12","accessibil":"no","servizi_ig":"no","aria_condi":"s\u00ec","servizio_f":"no","area_bambi":"no","pagina_fac":null,"pagina_twi":null,"pagina_ins":null,"pagina_you":null,"area_stati":"GALVANI-2","zona_pross":"GALVANI"}},{"type":"Feature","geometry":{"coordinates":[[11.3419323,44.4946348]],"type":"MultiPoint"},"properties":{"biblioteca":"Biblioteca di Salaborsa Ragazzi","tipologia":"U.I. Biblioteche di pubblica lettura","indirizzo":"Piazza del Nettuno, 3, 40124 Bologna BO","quartiere":"Porto - Saragozza","rete_wi_fi":"s\u00ec","fasciatoio":"s\u00ec","newsletter":"s\u00ec","telefono":"0512194411","email":"ragazzisalaborsa@comune.bologna.it","pagina_web":"https:\/\/www.bibliotechebologna.it\/objects\/salaborsa-ragazzi","sito_web":"https:\/\/www.bibliotecasalaborsa.it\/ragazzi\/","geo_point_2d":{"lon":11.3419323,"lat":44.4946348},"descrizion":"La Biblioteca Salaborsa Ragazzi offre ai bambini e ai ragazzi un luogo nel quale leggere, sviluppare l\u2019autonomia del pensiero, intrecciare relazioni personali con coetanei, fornendo anche l\u2019occasione di incontri con autori e attivit\u00e0 di animazione, e, ag","superficie":"1712","superfic_1":"1224","n_postazio":"162","accessibil":"s\u00ec","servizi_ig":"s\u00ec","aria_condi":"s\u00ec","servizio_f":"s\u00ec","area_bambi":"s\u00ec","pagina_fac":"https:\/\/www.facebook.com\/bibliotecasalaborsa","pagina_twi":null,"pagina_ins":null,"pagina_you":null,"area_stati":"MALPIGHI-1","zona_pross":"MALPIGHI"}},{"type":"Feature","geometry":{"coordinates":[[11.333659,44.493636]],"type":"MultiPoint"},"properties":{"biblioteca":"Biblioteca dell'Istituto Storico Parri Emilia-Romagna","tipologia":"U.I. Biblioteche di ricerca e conservazione","indirizzo":"Via Sant'Isaia, 20\/b 40123 Bologna BO","quartiere":"Porto - Saragozza","rete_wi_fi":"s\u00ec","fasciatoio":"no","newsletter":"s\u00ec","telefono":"0512195530","email":"bibliotecacorticella@comune.bologna.it","pagina_web":"https:\/\/www.bibliotechebologna.it\/objects\/biblioteca-istituto-storico-parri","sito_web":"http:\/\/www.istitutoparri.eu\/","geo_point_2d":{"lon":11.333659,"lat":44.493636},"descrizion":"L'Istituto Parri fu costituito a Bologna il 2 giugno 1963, su iniziativa di un gruppo di intellettuali e di protagonisti dell'Antifascismo e della Resistenza, per raccogliere le memorie e la documentazione sull'opposizione alla dittatura e alla guerra fa","superficie":"550","superfic_1":"500","n_postazio":"76","accessibil":"s\u00ec","servizi_ig":"s\u00ec","aria_condi":"s\u00ec","servizio_f":"s\u00ec","area_bambi":"no","pagina_fac":"https:\/\/www.facebook.com\/bibliotecacorticella","pagina_twi":null,"pagina_ins":null,"pagina_you":null,"area_stati":"MALPIGHI-2","zona_pross":"MALPIGHI"}},{"type":"Feature","geometry":{"coordinates":[[11.339304,44.484162]],"type":"MultiPoint"},"properties":{"biblioteca":"Biblioteca Amilcar Cabral","tipologia":"U.I. Biblioteche di pubblica lettura","indirizzo":"Via San Mamolo, 24 40136 Bologna BO","quartiere":"Santo Stefano","rete_wi_fi":"s\u00ec","fasciatoio":"no","newsletter":"s\u00ec","telefono":"051581464","email":"amicabr@comune.bologna.it","pagina_web":"https:\/\/www.bibliotechebologna.it\/objects\/biblioteca-amilcar-cabral","sito_web":"http:\/\/www.centrocabral.com\/","geo_point_2d":{"lon":11.339304,"lat":44.484162},"descrizion":"La Biblioteca Amilcar Cabral \u2013 intitolata all\u2019uomo politico guineense, fondatore del Partito Africano per l'Indipendenza della Guinea e di Capo Verde dal Portogallo (Bafat\u00e1, 1924-Conakry, 1973) \u2013 \u00e8 specializzata nella storia, nella vita politica, sociale","superficie":"1000","superfic_1":"500","n_postazio":"105","accessibil":"s\u00ec","servizi_ig":"no","aria_condi":"no","servizio_f":"s\u00ec","area_bambi":"no","pagina_fac":"https:\/\/www.facebook.com\/centrocabral","pagina_twi":"https:\/\/twitter.com\/CentroCabral","pagina_ins":"https:\/\/www.instagram.com\/centrocabral\/","pagina_you":"https:\/\/www.youtube.com\/c\/BibliotecaAmilcarCabral","area_stati":"SAN MICHELE IN BOSCO","zona_pross":"OSSERVANZA - PADERNO"}},{"type":"Feature","geometry":{"coordinates":[[11.3597844,44.5461834]],"type":"MultiPoint"},"properties":{"biblioteca":"Biblioteca Corticella-Luigi Fabbri","tipologia":"U.I. Biblioteche di pubblica lettura","indirizzo":"Via Massimo Gorki, 14 40128 Bologna BO","quartiere":"Navile","rete_wi_fi":"s\u00ec","fasciatoio":"no","newsletter":"s\u00ec","telefono":"0513397211","email":"istituto@istitutoparri.it","pagina_web":"https:\/\/www.bibliotechebologna.it\/objects\/biblioteca-corticella-luigi-fabbri","sito_web":null,"geo_point_2d":{"lon":11.3597844,"lat":44.5461834},"descrizion":"Biblioteca di pubblica lettura inaugurata nel 1978 all\u2019interno del Centro Civico Corticella. Organizza corsi di lingua italiana per cittadini stranieri, mostre di pittura e fotografiche, presentazioni di libri, laboratori per bambini, incontri con le cla","superficie":"778","superfic_1":"371","n_postazio":"48","accessibil":"s\u00ec","servizi_ig":"s\u00ec","aria_condi":"s\u00ec","servizio_f":"s\u00ec","area_bambi":"s\u00ec","pagina_fac":"https:\/\/www.facebook.com\/istitutoparri","pagina_twi":null,"pagina_ins":null,"pagina_you":null,"area_stati":"SAN SAVINO","zona_pross":"CORTICELLA - DOZZA"}},{"type":"Feature","geometry":{"coordinates":[[11.354375,44.493614]],"type":"MultiPoint"},"properties":{"biblioteca":"Biblioteca multimediale Roberto Ruffilli. Biblioteca Salaborsa LAB di Vicolo Bolognetti","tipologia":"U.I. Biblioteche di pubblica lettura","indirizzo":"Vicolo Bolognetti, 2, 40125 Bologna BO","quartiere":"Santo Stefano","rete_wi_fi":"s\u00ec","fasciatoio":"no","newsletter":"s\u00ec","telefono":"0512197122","email":"salaborsalab@comune.bologna.it","pagina_web":"https:\/\/www.bibliotechebologna.it\/biblioteche\/salaborsalab","sito_web":"https:\/\/www.bibliotechebologna.it\/biblioteche\/salaborsalab","geo_point_2d":{"lon":11.354375,"lat":44.493614},"descrizion":"Una biblioteca innovativa, uno spazio di apprendimento, un luogo di incontro e di crescita, un centro multimediale al servizio della comunit\u00e0, uno spazio informale per lo studio e l\u2019apprendimento in cui intraprendere percorsi trasversali ai linguaggi e a","superficie":"366","superfic_1":"334","n_postazio":null,"accessibil":"s\u00ec","servizi_ig":"no","aria_condi":"no","servizio_f":"no","area_bambi":"no","pagina_fac":"https:\/\/www.facebook.com\/bibliotecasalaborsa","pagina_twi":null,"pagina_ins":null,"pagina_you":null,"area_stati":"IRNERIO-2","zona_pross":"IRNERIO"}},{"type":"Feature","geometry":{"coordinates":[[11.391785,44.473998]],"type":"MultiPoint"},"properties":{"biblioteca":"Biblioteca Natalia Ginzburg","tipologia":"U.I. Biblioteche di pubblica lettura","indirizzo":"Via Genova, 10, 40139 Bologna BO","quartiere":"Savena","rete_wi_fi":"s\u00ec","fasciatoio":"s\u00ec","newsletter":"s\u00ec","telefono":"051466307","email":"bibliotecaginzburg@comune.bologna.it","pagina_web":"https:\/\/www.bibliotechebologna.it\/objects\/biblioteca-natalia-ginzburg","sito_web":null,"geo_point_2d":{"lon":11.391785,"lat":44.473998},"descrizion":"Biblioteca di pubblica lettura ubicata nel Quartiere Savena e dedicata alla scrittrice Natalia Ginzburg (Palermo, 1916-Roma, 1991). Promuove conferenze, incontri con autori, percorsi di lettura, seminari. Organizza o partecipa a iniziative per bambini e","superficie":"820","superfic_1":"670","n_postazio":"196","accessibil":"s\u00ec","servizi_ig":"s\u00ec","aria_condi":"s\u00ec","servizio_f":"s\u00ec","area_bambi":"s\u00ec","pagina_fac":"https:\/\/www.facebook.com\/BibliotecaGinzburg","pagina_twi":null,"pagina_ins":null,"pagina_you":null,"area_stati":"VIA ARNO","zona_pross":"PONTEVECCHIO - MAZZINI"}},{"type":"Feature","geometry":{"coordinates":[[11.394654,44.511076]],"type":"MultiPoint"},"properties":{"biblioteca":"Biblioteca Luigi Spina","tipologia":"U.I. Biblioteche di pubblica lettura","indirizzo":"Via Tommaso Casini, 5, 40127 Bologna BO","quartiere":"San Donato - San Vitale","rete_wi_fi":"s\u00ec","fasciatoio":"s\u00ec","newsletter":"s\u00ec","telefono":"051 2195341","email":"bibliotecalspina@comune.bologna.it","pagina_web":"https:\/\/www.bibliotechebologna.it\/objects\/biblioteca-luigi-spina","sito_web":null,"geo_point_2d":{"lon":11.394654,"lat":44.511076},"descrizion":"Biblioteca di pubblica lettura nel territorio del Quartiere San Donato-San Vitale, completamente rinnovata tra il 2019 e il 2020. La biblioteca \u00e8 organizzata su due piani. Al piano terra, oltre alla sala accoglienza dove sono esposte le novit\u00e0 editoriali","superficie":"402","superfic_1":"349","n_postazio":"96","accessibil":"s\u00ec","servizi_ig":"s\u00ec","aria_condi":"s\u00ec","servizio_f":"no","area_bambi":"s\u00ec","pagina_fac":"https:\/\/www.facebook.com\/bibliospina","pagina_twi":null,"pagina_ins":null,"pagina_you":null,"area_stati":"PILASTRO","zona_pross":"SAN DONATO NUOVO"}},{"type":"Feature","geometry":{"coordinates":[[11.3475233,44.5201102]],"type":"MultiPoint"},"properties":{"biblioteca":"Biblioteca Casa di Khaoula","tipologia":"U.I. Biblioteche di pubblica lettura","indirizzo":"Via di Corticella, 104 40129 Bologna BO","quartiere":"Navile","rete_wi_fi":"s\u00ec","fasciatoio":"s\u00ec","newsletter":"s\u00ec","telefono":"0516312721","email":"bibliotecacasakhaoula@comune.bologna.it","pagina_web":"https:\/\/www.bibliotechebologna.it\/objects\/biblioteca-casa-di-khaoula","sito_web":null,"geo_point_2d":{"lon":11.3475233,"lat":44.5201102},"descrizion":"La biblioteca, ispirata da una bambina immigrata di nome Khaoula che aveva chiesto al Quartiere Navile un luogo dove fare i compiti e leggere, ha come obiettivo specifico quello di favorire l\u2019integrazione delle diverse culture, fornendo a utenti di ogni","superficie":"885","superfic_1":"756","n_postazio":"109","accessibil":"s\u00ec","servizi_ig":"s\u00ec","aria_condi":"s\u00ec","servizio_f":"s\u00ec","area_bambi":"s\u00ec","pagina_fac":"https:\/\/www.facebook.com\/casadikhaoula","pagina_twi":null,"pagina_ins":null,"pagina_you":null,"area_stati":"ARCOVEGGIO","zona_pross":"BOLOGNINA"}}]}