{"type":"FeatureCollection","features":[{"type":"Feature","geometry":{"coordinates":[11.362224091747072,44.54747429643948],"type":"Point"},"properties":{"geo_point_2d":{"lon":11.362224091747072,"lat":44.54747429643948},"codvia":28720,"nomevia":"GIARDINO GUIDO GRANDI","quartiere":"Navile","tipo":"GIARDINO"}},{"type":"Feature","geometry":{"coordinates":[11.300775130492145,44.49680115371097],"type":"Point"},"properties":{"geo_point_2d":{"lon":11.300775130492145,"lat":44.49680115371097},"codvia":28870,"nomevia":"PARCO NICHOLAS GREEN","quartiere":"Borgo Panigale - Reno","tipo":"PARCO"}},{"type":"Feature","geometry":{"coordinates":[11.358986466521655,44.50476077951392],"type":"Point"},"properties":{"geo_point_2d":{"lon":11.358986466521655,"lat":44.50476077951392},"codvia":31390,"nomevia":"GIARDINO JOHN LENNON","quartiere":"San Donato - San Vitale","tipo":"GIARDINO"}},{"type":"Feature","geometry":{"coordinates":[11.320585280039166,44.49295131972932],"type":"Point"},"properties":{"geo_point_2d":{"lon":11.320585280039166,"lat":44.49295131972932},"codvia":37560,"nomevia":"GIARDINO VITTORIO MELLONI","quartiere":"Porto - Saragozza","tipo":"GIARDINO"}},{"type":"Feature","geometry":{"coordinates":[11.342095142311557,44.482742163929416],"type":"Point"},"properties":{"geo_point_2d":{"lon":11.342095142311557,"lat":44.482742163929416},"codvia":38160,"nomevia":"PARCO SAN MICHELE IN BOSCO","quartiere":"Santo Stefano","tipo":"PARCO"}},{"type":"Feature","geometry":{"coordinates":[11.346274712231706,44.50195424494683],"type":"Point"},"properties":{"geo_point_2d":{"lon":11.346274712231706,"lat":44.50195424494683},"codvia":39390,"nomevia":"GIARDINO DELLA MONTAGNOLA","quartiere":"Santo Stefano","tipo":"GIARDINO"}},{"type":"Feature","geometry":{"coordinates":[11.32007777939611,44.45225463171631],"type":"Point"},"properties":{"geo_point_2d":{"lon":11.32007777939611,"lat":44.45225463171631},"codvia":39760,"nomevia":"PARCO DI MONTE PADERNO","quartiere":"Santo Stefano","tipo":"PARCO"}},{"type":"Feature","geometry":{"coordinates":[11.285291733378008,44.51041097315337],"type":"Point"},"properties":{"geo_point_2d":{"lon":11.285291733378008,"lat":44.51041097315337},"codvia":40840,"nomevia":"GIARDINO IMRE NAGY","quartiere":"Borgo Panigale - Reno","tipo":"GIARDINO"}},{"type":"Feature","geometry":{"coordinates":[11.305028803285856,44.50407673555147],"type":"Point"},"properties":{"geo_point_2d":{"lon":11.305028803285856,"lat":44.50407673555147},"codvia":23630,"nomevia":"PARCO FORTEBRACCIO","quartiere":"Borgo Panigale - Reno","tipo":"PARCO"}},{"type":"Feature","geometry":{"coordinates":[11.359849784647114,44.50515573933598],"type":"Point"},"properties":{"geo_point_2d":{"lon":11.359849784647114,"lat":44.50515573933598},"codvia":30360,"nomevia":"GIARDINO JANIS JOPLIN","quartiere":"San Donato - San Vitale","tipo":"GIARDINO"}},{"type":"Feature","geometry":{"coordinates":[11.356034869116533,44.52935994203663],"type":"Point"},"properties":{"geo_point_2d":{"lon":11.356034869116533,"lat":44.52935994203663},"codvia":35670,"nomevia":"GIARDINO LUIGI GIACOMO MARMOCCHI","quartiere":"Navile","tipo":"GIARDINO"}},{"type":"Feature","geometry":{"coordinates":[11.38955064953023,44.492221853842715],"type":"Point"},"properties":{"geo_point_2d":{"lon":11.38955064953023,"lat":44.492221853842715},"codvia":17990,"nomevia":"GIARDINO NORMA COSSETTO","quartiere":"San Donato - San Vitale","tipo":"GIARDINO"}},{"type":"Feature","geometry":{"coordinates":[11.32147923113518,44.52242426522779],"type":"Point"},"properties":{"geo_point_2d":{"lon":11.32147923113518,"lat":44.52242426522779},"codvia":19290,"nomevia":"GIARDINO MILES DAVIS","quartiere":"Navile","tipo":"GIARDINO"}},{"type":"Feature","geometry":{"coordinates":[11.329254851533879,44.51541766448726],"type":"Point"},"properties":{"geo_point_2d":{"lon":11.329254851533879,"lat":44.51541766448726},"codvia":29890,"nomevia":"GIARDINO JIMI HENDRIX","quartiere":"Navile","tipo":"GIARDINO"}},{"type":"Feature","geometry":{"coordinates":[11.357807653083539,44.54466352729541],"type":"Point"},"properties":{"geo_point_2d":{"lon":11.357807653083539,"lat":44.54466352729541},"codvia":61770,"nomevia":"PARCO DI VILLA TORCHI","quartiere":"Navile","tipo":"PARCO"}},{"type":"Feature","geometry":{"coordinates":[11.353350650031354,44.53890027934249],"type":"Point"},"properties":{"geo_point_2d":{"lon":11.353350650031354,"lat":44.53890027934249},"codvia":27020,"nomevia":"PARCO DEI GIARDINI","quartiere":"Navile","tipo":"PARCO"}},{"type":"Feature","geometry":{"coordinates":[11.330592578122717,44.49647582447766],"type":"Point"},"properties":{"geo_point_2d":{"lon":11.330592578122717,"lat":44.49647582447766},"codvia":8510,"nomevia":"GIARDINO OTELLO BIGNAMI","quartiere":"Porto - Saragozza","tipo":"GIARDINO"}},{"type":"Feature","geometry":{"coordinates":[11.326757289686547,44.515136971674835],"type":"Point"},"properties":{"geo_point_2d":{"lon":11.326757289686547,"lat":44.515136971674835},"codvia":44660,"nomevia":"GIARDINO ANDREA PAZIENZA","quartiere":"Navile","tipo":"GIARDINO"}},{"type":"Feature","geometry":{"coordinates":[11.346289951776857,44.47907378790703],"type":"Point"},"properties":{"geo_point_2d":{"lon":11.346289951776857,"lat":44.47907378790703},"codvia":4110,"nomevia":"GIARDINO UMBERTO BAGNARESI","quartiere":"Santo Stefano","tipo":"GIARDINO"}},{"type":"Feature","geometry":{"coordinates":[11.315151466037056,44.52203154453549],"type":"Point"},"properties":{"geo_point_2d":{"lon":11.315151466037056,"lat":44.52203154453549},"codvia":10040,"nomevia":"GIARDINO LOUIS BRAILLE","quartiere":"Navile","tipo":"GIARDINO"}},{"type":"Feature","geometry":{"coordinates":[11.326684518480036,44.47637004804994],"type":"Point"},"properties":{"geo_point_2d":{"lon":11.326684518480036,"lat":44.47637004804994},"codvia":61710,"nomevia":"PARCO DI VILLA GHIGI","quartiere":"Santo Stefano","tipo":"PARCO"}},{"type":"Feature","geometry":{"coordinates":[11.26856018783469,44.51991348387794],"type":"Point"},"properties":{"geo_point_2d":{"lon":11.26856018783469,"lat":44.51991348387794},"codvia":16870,"nomevia":"GIARDINO DEI CIPRESSI","quartiere":"Borgo Panigale - Reno","tipo":"GIARDINO"}},{"type":"Feature","geometry":{"coordinates":[11.34145018815867,44.515833126995645],"type":"Point"},"properties":{"geo_point_2d":{"lon":11.34145018815867,"lat":44.515833126995645},"codvia":20560,"nomevia":"GIARDINO DONATORI DI SANGUE","quartiere":"Navile","tipo":"GIARDINO"}},{"type":"Feature","geometry":{"coordinates":[11.291358313946763,44.51117953872208],"type":"Point"},"properties":{"geo_point_2d":{"lon":11.291358313946763,"lat":44.51117953872208},"codvia":21590,"nomevia":"GIARDINO GENNARO FABBRI","quartiere":"Borgo Panigale - Reno","tipo":"GIARDINO"}},{"type":"Feature","geometry":{"coordinates":[11.294755872857811,44.510566708116215],"type":"Point"},"properties":{"geo_point_2d":{"lon":11.294755872857811,"lat":44.510566708116215},"codvia":21620,"nomevia":"GIARDINO AMOS FACCHINI","quartiere":"Borgo Panigale - Reno","tipo":"GIARDINO"}},{"type":"Feature","geometry":{"coordinates":[11.337850068237413,44.50429940376534],"type":"Point"},"properties":{"geo_point_2d":{"lon":11.337850068237413,"lat":44.50429940376534},"codvia":22080,"nomevia":"GIARDINO GRAZIELLA FAVA","quartiere":"Porto - Saragozza","tipo":"GIARDINO"}},{"type":"Feature","geometry":{"coordinates":[11.355799659507934,44.48822262823512],"type":"Point"},"properties":{"geo_point_2d":{"lon":11.355799659507934,"lat":44.48822262823512},"codvia":23340,"nomevia":"GIARDINO LAVINIA FONTANA","quartiere":"Santo Stefano","tipo":"GIARDINO"}},{"type":"Feature","geometry":{"coordinates":[11.37443389907279,44.502951221974456],"type":"Point"},"properties":{"geo_point_2d":{"lon":11.37443389907279,"lat":44.502951221974456},"codvia":25480,"nomevia":"GIARDINO ANGELO GANDOLFI","quartiere":"San Donato - San Vitale","tipo":"GIARDINO"}},{"type":"Feature","geometry":{"coordinates":[11.388391582573378,44.512414007568],"type":"Point"},"properties":{"geo_point_2d":{"lon":11.388391582573378,"lat":44.512414007568},"codvia":20065,"nomevia":"GIARDINO DON GIUSEPPE DIANA","quartiere":"San Donato - San Vitale","tipo":"GIARDINO"}},{"type":"Feature","geometry":{"coordinates":[11.342628796980554,44.483456193084805],"type":"Point"},"properties":{"geo_point_2d":{"lon":11.342628796980554,"lat":44.483456193084805},"codvia":20062,"nomevia":"GIARDINO CARLO DESCOVICH","quartiere":"Santo Stefano","tipo":"GIARDINO"}},{"type":"Feature","geometry":{"coordinates":[11.360081683830355,44.506691068307745],"type":"Point"},"properties":{"geo_point_2d":{"lon":11.360081683830355,"lat":44.506691068307745},"codvia":53770,"nomevia":"GIARDINO ROBERT SCHUMAN","quartiere":"San Donato - San Vitale","tipo":"GIARDINO"}},{"type":"Feature","geometry":{"coordinates":[11.35941511880145,44.50941823851261],"type":"Point"},"properties":{"geo_point_2d":{"lon":11.35941511880145,"lat":44.50941823851261},"codvia":55780,"nomevia":"GIARDINO ALTIERO SPINELLI","quartiere":"San Donato - San Vitale","tipo":"GIARDINO"}},{"type":"Feature","geometry":{"coordinates":[11.3303266584927,44.490262778950466],"type":"Point"},"properties":{"geo_point_2d":{"lon":11.3303266584927,"lat":44.490262778950466},"codvia":24510,"nomevia":"GIARDINO ENA FRAZZONI","quartiere":"Porto - Saragozza","tipo":"GIARDINO"}},{"type":"Feature","geometry":{"coordinates":[11.339774957816179,44.51245190545541],"type":"Point"},"properties":{"geo_point_2d":{"lon":11.339774957816179,"lat":44.51245190545541},"codvia":32840,"nomevia":"GIARDINO ELENA LUZZATTO","quartiere":"Navile","tipo":"GIARDINO"}},{"type":"Feature","geometry":{"coordinates":[11.339007821089549,44.51075812119404],"type":"Point"},"properties":{"geo_point_2d":{"lon":11.339007821089549,"lat":44.51075812119404},"codvia":62175,"nomevia":"GIARDINO VITTIME DELLA STRAGE DEL 2 AGOSTO 1980","quartiere":"Navile","tipo":"GIARDINO"}},{"type":"Feature","geometry":{"coordinates":[11.357355154180585,44.487090507973356],"type":"Point"},"properties":{"geo_point_2d":{"lon":11.357355154180585,"lat":44.487090507973356},"codvia":15755,"nomevia":"GIARDINO ISABELLA CEOLA","quartiere":"Santo Stefano","tipo":"GIARDINO"}},{"type":"Feature","geometry":{"coordinates":[11.315365320394582,44.484882750123916],"type":"Point"},"properties":{"geo_point_2d":{"lon":11.315365320394582,"lat":44.484882750123916},"codvia":45330,"nomevia":"GIARDINO EMANUELE PETRI","quartiere":"Porto - Saragozza","tipo":"GIARDINO"}},{"type":"Feature","geometry":{"coordinates":[11.32641535783201,44.49989521786878],"type":"Point"},"properties":{"geo_point_2d":{"lon":11.32641535783201,"lat":44.49989521786878},"codvia":24280,"nomevia":"GIARDINO MONSIGNOR ENELIO FRANZONI","quartiere":"Porto - Saragozza","tipo":"GIARDINO"}},{"type":"Feature","geometry":{"coordinates":[11.372814459864077,44.48597383512847],"type":"Point"},"properties":{"geo_point_2d":{"lon":11.372814459864077,"lat":44.48597383512847},"codvia":29740,"nomevia":"GIARDINO UGO GUIDI","quartiere":"San Donato - San Vitale","tipo":"GIARDINO"}},{"type":"Feature","geometry":{"coordinates":[11.378299811823616,44.49928878146391],"type":"Point"},"properties":{"geo_point_2d":{"lon":11.378299811823616,"lat":44.49928878146391},"codvia":31935,"nomevia":"PARCO PRIMO LEVI","quartiere":"San Donato - San Vitale","tipo":"PARCO"}},{"type":"Feature","geometry":{"coordinates":[11.344809002759876,44.48990503845443],"type":"Point"},"properties":{"geo_point_2d":{"lon":11.344809002759876,"lat":44.48990503845443},"codvia":25955,"nomevia":"GIARDINO DINO GAVINA","quartiere":"Santo Stefano","tipo":"GIARDINO"}},{"type":"Feature","geometry":{"coordinates":[11.345096163097741,44.530412881322235],"type":"Point"},"properties":{"geo_point_2d":{"lon":11.345096163097741,"lat":44.530412881322235},"codvia":29885,"nomevia":"GIARDINO PAUL HARRIS","quartiere":"Navile","tipo":"GIARDINO"}},{"type":"Feature","geometry":{"coordinates":[11.37534296816771,44.470579644665655],"type":"Point"},"properties":{"geo_point_2d":{"lon":11.37534296816771,"lat":44.470579644665655},"codvia":18790,"nomevia":"GIARDINO MARIE CURIE","quartiere":"Savena","tipo":"GIARDINO"}},{"type":"Feature","geometry":{"coordinates":[11.37409076532823,44.47064317194265],"type":"Point"},"properties":{"geo_point_2d":{"lon":11.37409076532823,"lat":44.47064317194265},"codvia":41420,"nomevia":"GIARDINO FLORENCE NIGHTINGALE","quartiere":"Savena","tipo":"GIARDINO"}},{"type":"Feature","geometry":{"coordinates":[11.397149236215553,44.491059119210064],"type":"Point"},"properties":{"geo_point_2d":{"lon":11.397149236215553,"lat":44.491059119210064},"codvia":11580,"nomevia":"GIARDINO MADRI COSTITUENTI","quartiere":"San Donato - San Vitale","tipo":"GIARDINO"}},{"type":"Feature","geometry":{"coordinates":[11.378135828308494,44.50521118965366],"type":"Point"},"properties":{"geo_point_2d":{"lon":11.378135828308494,"lat":44.50521118965366},"codvia":29705,"nomevia":"GIARDINO FRANCESCO GUICCIARDINI","quartiere":"San Donato - San Vitale","tipo":"GIARDINO"}},{"type":"Feature","geometry":{"coordinates":[11.313721606277259,44.49213141443586],"type":"Point"},"properties":{"geo_point_2d":{"lon":11.313721606277259,"lat":44.49213141443586},"codvia":30645,"nomevia":"GIARDINO ANNA KULISCIOFF","quartiere":"Porto - Saragozza","tipo":"GIARDINO"}},{"type":"Feature","geometry":{"coordinates":[11.371761059293299,44.467190897219076],"type":"Point"},"properties":{"geo_point_2d":{"lon":11.371761059293299,"lat":44.467190897219076},"codvia":8770,"nomevia":"GIARDINO ODETTE RIGHI BOI","quartiere":"Savena","tipo":"GIARDINO"}},{"type":"Feature","geometry":{"coordinates":[11.371194023034167,44.45513359615154],"type":"Point"},"properties":{"geo_point_2d":{"lon":11.371194023034167,"lat":44.45513359615154},"codvia":40290,"nomevia":"GIARDINO MARIA ANNA MOZART","quartiere":"Savena","tipo":"GIARDINO"}},{"type":"Feature","geometry":{"coordinates":[11.380332414116877,44.473379505067136],"type":"Point"},"properties":{"geo_point_2d":{"lon":11.380332414116877,"lat":44.473379505067136},"codvia":24890,"nomevia":"GIARDINO ALESSANDRA GALANTE GARRONE","quartiere":"Savena","tipo":"GIARDINO"}},{"type":"Feature","geometry":{"coordinates":[11.393852813449248,44.509335572289984],"type":"Point"},"properties":{"geo_point_2d":{"lon":11.393852813449248,"lat":44.509335572289984},"codvia":5955,"nomevia":"GIARDINO GUALBERTA ALAIDE BECCARI","quartiere":"San Donato - San Vitale","tipo":"GIARDINO"}},{"type":"Feature","geometry":{"coordinates":[11.38463793897333,44.483180225658344],"type":"Point"},"properties":{"geo_point_2d":{"lon":11.38463793897333,"lat":44.483180225658344},"codvia":52270,"nomevia":"GIARDINO ALBERT BRUCE SABIN","quartiere":"Savena","tipo":"GIARDINO"}},{"type":"Feature","geometry":{"coordinates":[11.365544297290914,44.47449010476805],"type":"Point"},"properties":{"geo_point_2d":{"lon":11.365544297290914,"lat":44.47449010476805},"codvia":42030,"nomevia":"PARCO OLIVIERO MARIO OLIVO","quartiere":"Santo Stefano","tipo":"PARCO"}},{"type":"Feature","geometry":{"coordinates":[11.37449212777399,44.50225212252644],"type":"Point"},"properties":{"geo_point_2d":{"lon":11.37449212777399,"lat":44.50225212252644},"codvia":51460,"nomevia":"GIARDINO AMELIA ROSSELLI","quartiere":"San Donato - San Vitale","tipo":"GIARDINO"}},{"type":"Feature","geometry":{"coordinates":[11.35971036523948,44.508384222957226],"type":"Point"},"properties":{"geo_point_2d":{"lon":11.35971036523948,"lat":44.508384222957226},"codvia":30690,"nomevia":"GIARDINO PAOLO LACCHINI","quartiere":"San Donato - San Vitale","tipo":"GIARDINO"}},{"type":"Feature","geometry":{"coordinates":[11.374569040542223,44.508848008239575],"type":"Point"},"properties":{"geo_point_2d":{"lon":11.374569040542223,"lat":44.508848008239575},"codvia":20590,"nomevia":"PARCO SAN DONNINO","quartiere":"San Donato - San Vitale","tipo":"PARCO"}},{"type":"Feature","geometry":{"coordinates":[11.395347085035853,44.47380465039503],"type":"Point"},"properties":{"geo_point_2d":{"lon":11.395347085035853,"lat":44.47380465039503},"codvia":2680,"nomevia":"PARCO AQUILE RANDAGIE","quartiere":"Savena","tipo":"PARCO"}},{"type":"Feature","geometry":{"coordinates":[11.256426705911162,44.502603670710066],"type":"Point"},"properties":{"geo_point_2d":{"lon":11.256426705911162,"lat":44.502603670710066},"codvia":14160,"nomevia":"PARCO DI VILLA BERNAROLI","quartiere":"Borgo Panigale - Reno","tipo":"PARCO"}},{"type":"Feature","geometry":{"coordinates":[11.330217350367782,44.48244112352233],"type":"Point"},"properties":{"geo_point_2d":{"lon":11.330217350367782,"lat":44.48244112352233},"codvia":1360,"nomevia":"PARCO DI VILLA ALDINI","quartiere":"Santo Stefano","tipo":"PARCO"}},{"type":"Feature","geometry":{"coordinates":[11.383684386052844,44.49723212884447],"type":"Point"},"properties":{"geo_point_2d":{"lon":11.383684386052844,"lat":44.49723212884447},"codvia":48770,"nomevia":"GIARDINO SALVATORE QUASIMODO","quartiere":"San Donato - San Vitale","tipo":"GIARDINO"}},{"type":"Feature","geometry":{"coordinates":[11.344860383630573,44.52912550959452],"type":"Point"},"properties":{"geo_point_2d":{"lon":11.344860383630573,"lat":44.52912550959452},"codvia":62685,"nomevia":"GIARDINO VIRGINIA WOOLF","quartiere":"Navile","tipo":"GIARDINO"}},{"type":"Feature","geometry":{"coordinates":[11.390913665255832,44.48402577932807],"type":"Point"},"properties":{"geo_point_2d":{"lon":11.390913665255832,"lat":44.48402577932807},"codvia":53160,"nomevia":"GIARDINO DINO SARTI","quartiere":"Savena","tipo":"GIARDINO"}},{"type":"Feature","geometry":{"coordinates":[11.364530672948339,44.49276040278964],"type":"Point"},"properties":{"geo_point_2d":{"lon":11.364530672948339,"lat":44.49276040278964},"codvia":25090,"nomevia":"GIARDINO UBALDO GALLERANI","quartiere":"San Donato - San Vitale","tipo":"GIARDINO"}},{"type":"Feature","geometry":{"coordinates":[11.354681772106474,44.488467921721565],"type":"Point"},"properties":{"geo_point_2d":{"lon":11.354681772106474,"lat":44.488467921721565},"codvia":29895,"nomevia":"GIARDINO MIRAN HROVATIN","quartiere":"Santo Stefano","tipo":"GIARDINO"}},{"type":"Feature","geometry":{"coordinates":[11.366016486149354,44.49728140232841],"type":"Point"},"properties":{"geo_point_2d":{"lon":11.366016486149354,"lat":44.49728140232841},"codvia":6855,"nomevia":"GIARDINO BENEDETTO XV","quartiere":"San Donato - San Vitale","tipo":"GIARDINO"}},{"type":"Feature","geometry":{"coordinates":[11.289004404165222,44.50892855056633],"type":"Point"},"properties":{"geo_point_2d":{"lon":11.289004404165222,"lat":44.50892855056633},"codvia":41470,"nomevia":"PARCO DEI NOCI","quartiere":"Borgo Panigale - Reno","tipo":"PARCO"}},{"type":"Feature","geometry":{"coordinates":[11.384213674805975,44.47679627052251],"type":"Point"},"properties":{"geo_point_2d":{"lon":11.384213674805975,"lat":44.47679627052251},"codvia":44210,"nomevia":"GIARDINO ROSA PARKS","quartiere":"Savena","tipo":"GIARDINO"}},{"type":"Feature","geometry":{"coordinates":[11.392548717221949,44.5133384691108],"type":"Point"},"properties":{"geo_point_2d":{"lon":11.392548717221949,"lat":44.5133384691108},"codvia":44380,"nomevia":"PARCO PIER PAOLO PASOLINI","quartiere":"San Donato - San Vitale","tipo":"PARCO"}},{"type":"Feature","geometry":{"coordinates":[11.366638209054395,44.50066384473694],"type":"Point"},"properties":{"geo_point_2d":{"lon":11.366638209054395,"lat":44.50066384473694},"codvia":44820,"nomevia":"GIARDINO DAVIDE PENAZZI","quartiere":"San Donato - San Vitale","tipo":"GIARDINO"}},{"type":"Feature","geometry":{"coordinates":[11.277344689592645,44.51747045340835],"type":"Point"},"properties":{"geo_point_2d":{"lon":11.277344689592645,"lat":44.51747045340835},"codvia":46630,"nomevia":"GIARDINO DEI PLATANI","quartiere":"Borgo Panigale - Reno","tipo":"GIARDINO"}},{"type":"Feature","geometry":{"coordinates":[11.292665043035,44.5013065109926],"type":"Point"},"properties":{"geo_point_2d":{"lon":11.292665043035,"lat":44.5013065109926},"codvia":670,"nomevia":"GIARDINO NATALIA AGOSTINI E MANUELA GALLON","quartiere":"Borgo Panigale - Reno","tipo":"GIARDINO"}},{"type":"Feature","geometry":{"coordinates":[11.342603648648401,44.50451760904234],"type":"Point"},"properties":{"geo_point_2d":{"lon":11.342603648648401,"lat":44.50451760904234},"codvia":1990,"nomevia":"GIARDINO GIORGIO AMENDOLA","quartiere":"Porto - Saragozza","tipo":"GIARDINO"}},{"type":"Feature","geometry":{"coordinates":[11.379801083113998,44.48469437420823],"type":"Point"},"properties":{"geo_point_2d":{"lon":11.379801083113998,"lat":44.48469437420823},"codvia":2030,"nomevia":"PARCO WLADYSLAW ANDERS","quartiere":"Savena","tipo":"PARCO"}},{"type":"Feature","geometry":{"coordinates":[11.306893131970606,44.50072716217285],"type":"Point"},"properties":{"geo_point_2d":{"lon":11.306893131970606,"lat":44.50072716217285},"codvia":2380,"nomevia":"GIARDINO GAETANO ANSALONI","quartiere":"Porto - Saragozza","tipo":"GIARDINO"}},{"type":"Feature","geometry":{"coordinates":[11.298216239183402,44.49813983433668],"type":"Point"},"properties":{"geo_point_2d":{"lon":11.298216239183402,"lat":44.49813983433668},"codvia":47630,"nomevia":"GIARDINO SEVERO POZZATI","quartiere":"Borgo Panigale - Reno","tipo":"GIARDINO"}},{"type":"Feature","geometry":{"coordinates":[11.280698969774688,44.50284546663789],"type":"Point"},"properties":{"geo_point_2d":{"lon":11.280698969774688,"lat":44.50284546663789},"codvia":4370,"nomevia":"GIARDINO DEI BAMBU'","quartiere":"Borgo Panigale - Reno","tipo":"GIARDINO"}},{"type":"Feature","geometry":{"coordinates":[11.387493119605603,44.48688484377882],"type":"Point"},"properties":{"geo_point_2d":{"lon":11.387493119605603,"lat":44.48688484377882},"codvia":10170,"nomevia":"GIARDINO BRIGATA PARTIGIANA MAIELLA","quartiere":"Savena","tipo":"GIARDINO"}},{"type":"Feature","geometry":{"coordinates":[11.392118622256701,44.50094033203299],"type":"Point"},"properties":{"geo_point_2d":{"lon":11.392118622256701,"lat":44.50094033203299},"codvia":56770,"nomevia":"PARCO VINCENZO TANARA","quartiere":"San Donato - San Vitale","tipo":"PARCO"}},{"type":"Feature","geometry":{"coordinates":[11.273384798840018,44.51885478050248],"type":"Point"},"properties":{"geo_point_2d":{"lon":11.273384798840018,"lat":44.51885478050248},"codvia":56970,"nomevia":"GIARDINO DEI TASSI","quartiere":"Borgo Panigale - Reno","tipo":"GIARDINO"}},{"type":"Feature","geometry":{"coordinates":[11.27705840027222,44.518742437538826],"type":"Point"},"properties":{"geo_point_2d":{"lon":11.27705840027222,"lat":44.518742437538826},"codvia":57620,"nomevia":"GIARDINO DEI TIGLI","quartiere":"Borgo Panigale - Reno","tipo":"GIARDINO"}},{"type":"Feature","geometry":{"coordinates":[11.370463963864434,44.46998532439534],"type":"Point"},"properties":{"geo_point_2d":{"lon":11.370463963864434,"lat":44.46998532439534},"codvia":10870,"nomevia":"GIARDINO FERRUCCIO BUSONI","quartiere":"Savena","tipo":"GIARDINO"}},{"type":"Feature","geometry":{"coordinates":[11.302603243406194,44.443503488216315],"type":"Point"},"properties":{"geo_point_2d":{"lon":11.302603243406194,"lat":44.443503488216315},"codvia":15140,"nomevia":"PARCO CAVAIONI","quartiere":"Santo Stefano","tipo":"PARCO"}},{"type":"Feature","geometry":{"coordinates":[11.336494524700754,44.502233428537046],"type":"Point"},"properties":{"geo_point_2d":{"lon":11.336494524700754,"lat":44.502233428537046},"codvia":15270,"nomevia":"GIARDINO DEL CAVATICCIO","quartiere":"Porto - Saragozza","tipo":"GIARDINO"}},{"type":"Feature","geometry":{"coordinates":[11.343925636446235,44.490939509422],"type":"Point"},"properties":{"geo_point_2d":{"lon":11.343925636446235,"lat":44.490939509422},"codvia":15510,"nomevia":"GIARDINO DI PIAZZA CAVOUR","quartiere":"Santo Stefano","tipo":"GIARDINO"}},{"type":"Feature","geometry":{"coordinates":[11.285479216751638,44.49490429919741],"type":"Point"},"properties":{"geo_point_2d":{"lon":11.285479216751638,"lat":44.49490429919741},"codvia":27490,"nomevia":"GIARDINO GIOVANNI XXIII","quartiere":"Borgo Panigale - Reno","tipo":"GIARDINO"}},{"type":"Feature","geometry":{"coordinates":[11.319562713440233,44.521342559825875],"type":"Point"},"properties":{"geo_point_2d":{"lon":11.319562713440233,"lat":44.521342559825875},"codvia":30590,"nomevia":"GIARDINO FRANCESCO KOLLETZEK","quartiere":"Navile","tipo":"GIARDINO"}},{"type":"Feature","geometry":{"coordinates":[11.349152568124321,44.532581441774965],"type":"Point"},"properties":{"geo_point_2d":{"lon":11.349152568124321,"lat":44.532581441774965},"codvia":30790,"nomevia":"GIARDINO FRANCESCO L'ANGE","quartiere":"Navile","tipo":"GIARDINO"}},{"type":"Feature","geometry":{"coordinates":[11.37938704492528,44.46913969195632],"type":"Point"},"properties":{"geo_point_2d":{"lon":11.37938704492528,"lat":44.46913969195632},"codvia":30810,"nomevia":"GIARDINO ANTONIO LANDRISCINA","quartiere":"Savena","tipo":"GIARDINO"}},{"type":"Feature","geometry":{"coordinates":[11.329105293966396,44.50237745476488],"type":"Point"},"properties":{"geo_point_2d":{"lon":11.329105293966396,"lat":44.50237745476488},"codvia":32570,"nomevia":"GIARDINO PIERFRANCESCO LO RUSSO","quartiere":"Porto - Saragozza","tipo":"GIARDINO"}},{"type":"Feature","geometry":{"coordinates":[11.352529325078779,44.48266247741029],"type":"Point"},"properties":{"geo_point_2d":{"lon":11.352529325078779,"lat":44.48266247741029},"codvia":35390,"nomevia":"GIARDINI MARGHERITA","quartiere":"Santo Stefano","tipo":"GIARDINI"}},{"type":"Feature","geometry":{"coordinates":[11.369158823597209,44.502925399670424],"type":"Point"},"properties":{"geo_point_2d":{"lon":11.369158823597209,"lat":44.502925399670424},"codvia":35560,"nomevia":"GIARDINO AUGUSTO MAGONI","quartiere":"San Donato - San Vitale","tipo":"GIARDINO"}},{"type":"Feature","geometry":{"coordinates":[11.296246608761919,44.48733471366172],"type":"Point"},"properties":{"geo_point_2d":{"lon":11.296246608761919,"lat":44.48733471366172},"codvia":36190,"nomevia":"GIARDINO MARTIRI D'ISTRIA, VENEZIA GIULIA E DALMAZIA","quartiere":"Porto - Saragozza","tipo":"GIARDINO"}},{"type":"Feature","geometry":{"coordinates":[11.348656622599057,44.53088879045128],"type":"Point"},"properties":{"geo_point_2d":{"lon":11.348656622599057,"lat":44.53088879045128},"codvia":40060,"nomevia":"GIARDINO ANNA MORANDI MANZOLINI","quartiere":"Navile","tipo":"GIARDINO"}},{"type":"Feature","geometry":{"coordinates":[11.351233629803199,44.534495971560794],"type":"Point"},"properties":{"geo_point_2d":{"lon":11.351233629803199,"lat":44.534495971560794},"codvia":30330,"nomevia":"GIARDINO NILDE IOTTI","quartiere":"Navile","tipo":"GIARDINO"}},{"type":"Feature","geometry":{"coordinates":[11.3649217737964,44.47932332207447],"type":"Point"},"properties":{"geo_point_2d":{"lon":11.3649217737964,"lat":44.47932332207447},"codvia":54130,"nomevia":"GIARDINO GIAMPIERO SEGAFREDO","quartiere":"Santo Stefano","tipo":"GIARDINO"}},{"type":"Feature","geometry":{"coordinates":[11.350195378903825,44.497356523184614],"type":"Point"},"properties":{"geo_point_2d":{"lon":11.350195378903825,"lat":44.497356523184614},"codvia":29390,"nomevia":"GIARDINO DEL GUASTO","quartiere":"Santo Stefano","tipo":"GIARDINO"}},{"type":"Feature","geometry":{"coordinates":[11.348497058211924,44.51251809803465],"type":"Point"},"properties":{"geo_point_2d":{"lon":11.348497058211924,"lat":44.51251809803465},"codvia":36740,"nomevia":"GIARDINO GIULIETTA MASINA","quartiere":"Navile","tipo":"GIARDINO"}},{"type":"Feature","geometry":{"coordinates":[11.389065187360332,44.47374371188754],"type":"Point"},"properties":{"geo_point_2d":{"lon":11.389065187360332,"lat":44.47374371188754},"codvia":9070,"nomevia":"GIARDINO IGNAZIO BONCOMPAGNI LUDOVISI","quartiere":"Savena","tipo":"GIARDINO"}},{"type":"Feature","geometry":{"coordinates":[11.350107394784995,44.512955745507945],"type":"Point"},"properties":{"geo_point_2d":{"lon":11.350107394784995,"lat":44.512955745507945},"codvia":31070,"nomevia":"GIARDINO LA ZUCCA","quartiere":"Navile","tipo":"GIARDINO"}},{"type":"Feature","geometry":{"coordinates":[11.394149936822695,44.48034922350163],"type":"Point"},"properties":{"geo_point_2d":{"lon":11.394149936822695,"lat":44.48034922350163},"codvia":30170,"nomevia":"GIARDINO GIUSEPPE IMPASTATO","quartiere":"Savena","tipo":"GIARDINO"}},{"type":"Feature","geometry":{"coordinates":[11.335738695057602,44.47927041484371],"type":"Point"},"properties":{"geo_point_2d":{"lon":11.335738695057602,"lat":44.47927041484371},"codvia":36470,"nomevia":"GIARDINO NORMA MASCELLANI","quartiere":"Santo Stefano","tipo":"GIARDINO"}},{"type":"Feature","geometry":{"coordinates":[11.384725988958664,44.46440242394513],"type":"Point"},"properties":{"geo_point_2d":{"lon":11.384725988958664,"lat":44.46440242394513},"codvia":59910,"nomevia":"PARCO CARLO URBANI","quartiere":"Savena","tipo":"PARCO"}},{"type":"Feature","geometry":{"coordinates":[11.380675144818289,44.48807448267324],"type":"Point"},"properties":{"geo_point_2d":{"lon":11.380675144818289,"lat":44.48807448267324},"codvia":5390,"nomevia":"GIARDINO EMILIO BASSI","quartiere":"Savena","tipo":"GIARDINO"}},{"type":"Feature","geometry":{"coordinates":[11.387631763522096,44.47106118982613],"type":"Point"},"properties":{"geo_point_2d":{"lon":11.387631763522096,"lat":44.47106118982613},"codvia":53480,"nomevia":"GIARDINO ANGIOLA SBAIZ","quartiere":"Savena","tipo":"GIARDINO"}},{"type":"Feature","geometry":{"coordinates":[11.397644356360534,44.47048786313236],"type":"Point"},"properties":{"geo_point_2d":{"lon":11.397644356360534,"lat":44.47048786313236},"codvia":15590,"nomevia":"PARCO DEI CEDRI","quartiere":"Savena","tipo":"PARCO"}},{"type":"Feature","geometry":{"coordinates":[11.37262810799599,44.50370898398103],"type":"Point"},"properties":{"geo_point_2d":{"lon":11.37262810799599,"lat":44.50370898398103},"codvia":16020,"nomevia":"GIARDINO GINO CERVI","quartiere":"San Donato - San Vitale","tipo":"GIARDINO"}},{"type":"Feature","geometry":{"coordinates":[11.313880100663106,44.48781327667133],"type":"Point"},"properties":{"geo_point_2d":{"lon":11.313880100663106,"lat":44.48781327667133},"codvia":61830,"nomevia":"PARCO DI VILLA SPADA","quartiere":"Porto - Saragozza","tipo":"PARCO"}},{"type":"Feature","geometry":{"coordinates":[11.292764645204116,44.519770913342576],"type":"Point"},"properties":{"geo_point_2d":{"lon":11.292764645204116,"lat":44.519770913342576},"codvia":16720,"nomevia":"GIARDINO DEI CILIEGI","quartiere":"Borgo Panigale - Reno","tipo":"GIARDINO"}},{"type":"Feature","geometry":{"coordinates":[11.285544087777405,44.49152760423499],"type":"Point"},"properties":{"geo_point_2d":{"lon":11.285544087777405,"lat":44.49152760423499},"codvia":19230,"nomevia":"GIARDINO GUIDO HORN D'ARTURO","quartiere":"Borgo Panigale - Reno","tipo":"GIARDINO"}},{"type":"Feature","geometry":{"coordinates":[11.390839720772195,44.473417512663],"type":"Point"},"properties":{"geo_point_2d":{"lon":11.390839720772195,"lat":44.473417512663},"codvia":21560,"nomevia":"GIARDINO EUROPA UNITA","quartiere":"Savena","tipo":"GIARDINO"}},{"type":"Feature","geometry":{"coordinates":[11.346432039411475,44.45385178011204],"type":"Point"},"properties":{"geo_point_2d":{"lon":11.346432039411475,"lat":44.45385178011204},"codvia":23620,"nomevia":"PARCO DI FORTE BANDIERA","quartiere":"Santo Stefano","tipo":"PARCO"}},{"type":"Feature","geometry":{"coordinates":[11.300869431672165,44.491852249007565],"type":"Point"},"properties":{"geo_point_2d":{"lon":11.300869431672165,"lat":44.491852249007565},"codvia":26730,"nomevia":"GIARDINO DEL GHISELLO","quartiere":"Borgo Panigale - Reno","tipo":"GIARDINO"}},{"type":"Feature","geometry":{"coordinates":[11.38355243785981,44.49512377068045],"type":"Point"},"properties":{"geo_point_2d":{"lon":11.38355243785981,"lat":44.49512377068045},"codvia":29710,"nomevia":"GIARDINO MARGHERITA GUIDACCI","quartiere":"San Donato - San Vitale","tipo":"GIARDINO"}},{"type":"Feature","geometry":{"coordinates":[11.390711274979417,44.47790337324167],"type":"Point"},"properties":{"geo_point_2d":{"lon":11.390711274979417,"lat":44.47790337324167},"codvia":54280,"nomevia":"GIARDINO ANGELO SENIN","quartiere":"Savena","tipo":"GIARDINO"}},{"type":"Feature","geometry":{"coordinates":[11.292548887782967,44.50831317252204],"type":"Point"},"properties":{"geo_point_2d":{"lon":11.292548887782967,"lat":44.50831317252204},"codvia":4460,"nomevia":"PARCO FREDERICK GRANT BANTING E JOHN JAMES RICKARD MACLEOD","quartiere":"Borgo Panigale - Reno","tipo":"PARCO"}},{"type":"Feature","geometry":{"coordinates":[11.39511482552132,44.476024677534944],"type":"Point"},"properties":{"geo_point_2d":{"lon":11.39511482552132,"lat":44.476024677534944},"codvia":34270,"nomevia":"GIARDINO PIERO MANAI","quartiere":"Savena","tipo":"GIARDINO"}},{"type":"Feature","geometry":{"coordinates":[11.294217432492209,44.49026480596283],"type":"Point"},"properties":{"geo_point_2d":{"lon":11.294217432492209,"lat":44.49026480596283},"codvia":40430,"nomevia":"GIARDINO ANGELA TERESA MURATORI","quartiere":"Borgo Panigale - Reno","tipo":"GIARDINO"}},{"type":"Feature","geometry":{"coordinates":[11.291847874468337,44.49116267074575],"type":"Point"},"properties":{"geo_point_2d":{"lon":11.291847874468337,"lat":44.49116267074575},"codvia":13070,"nomevia":"GIARDINO LUCIA CASALINI","quartiere":"Borgo Panigale - Reno","tipo":"GIARDINO"}},{"type":"Feature","geometry":{"coordinates":[11.385082034543178,44.48696102976428],"type":"Point"},"properties":{"geo_point_2d":{"lon":11.385082034543178,"lat":44.48696102976428},"codvia":62180,"nomevia":"GIARDINO VITTIME DELLA UNO BIANCA","quartiere":"Savena","tipo":"GIARDINO"}},{"type":"Feature","geometry":{"coordinates":[11.345277193113121,44.49195641018868],"type":"Point"},"properties":{"geo_point_2d":{"lon":11.345277193113121,"lat":44.49195641018868},"codvia":38740,"nomevia":"GIARDINO DI PIAZZA MARCO MINGHETTI","quartiere":"Santo Stefano","tipo":"GIARDINO"}},{"type":"Feature","geometry":{"coordinates":[11.26433465610792,44.522587250916544],"type":"Point"},"properties":{"geo_point_2d":{"lon":11.26433465610792,"lat":44.522587250916544},"codvia":47260,"nomevia":"GIARDINO JERZY POPIELUSZKO","quartiere":"Borgo Panigale - Reno","tipo":"GIARDINO"}},{"type":"Feature","geometry":{"coordinates":[11.392911144149501,44.48373742453515],"type":"Point"},"properties":{"geo_point_2d":{"lon":11.392911144149501,"lat":44.48373742453515},"codvia":60270,"nomevia":"GIARDINO ALIDA VALLI","quartiere":"Savena","tipo":"GIARDINO"}},{"type":"Feature","geometry":{"coordinates":[11.398413141509511,44.49510703894338],"type":"Point"},"properties":{"geo_point_2d":{"lon":11.398413141509511,"lat":44.49510703894338},"codvia":7290,"nomevia":"GIARDINO LUCIANO BERGONZINI","quartiere":"San Donato - San Vitale","tipo":"GIARDINO"}},{"type":"Feature","geometry":{"coordinates":[11.386488779134318,44.49489779010383],"type":"Point"},"properties":{"geo_point_2d":{"lon":11.386488779134318,"lat":44.49489779010383},"codvia":37935,"nomevia":"GIARDINO ALDA MERINI","quartiere":"San Donato - San Vitale","tipo":"GIARDINO"}},{"type":"Feature","geometry":{"coordinates":[11.284783673964858,44.493863181506086],"type":"Point"},"properties":{"geo_point_2d":{"lon":11.284783673964858,"lat":44.493863181506086},"codvia":50580,"nomevia":"GIARDINO JOS\u00c8 RIZAL","quartiere":"Borgo Panigale - Reno","tipo":"GIARDINO"}},{"type":"Feature","geometry":{"coordinates":[11.282036429009993,44.49433960727674],"type":"Point"},"properties":{"geo_point_2d":{"lon":11.282036429009993,"lat":44.49433960727674},"codvia":59570,"nomevia":"GIARDINO ALAN MATHISON TURING","quartiere":"Borgo Panigale - Reno","tipo":"GIARDINO"}},{"type":"Feature","geometry":{"coordinates":[11.33654852661239,44.52736214585603],"type":"Point"},"properties":{"geo_point_2d":{"lon":11.33654852661239,"lat":44.52736214585603},"codvia":24270,"nomevia":"GIARDINO OLIVIERO FRANCHINI","quartiere":"Navile","tipo":"GIARDINO"}},{"type":"Feature","geometry":{"coordinates":[11.285684664461938,44.49915972427539],"type":"Point"},"properties":{"geo_point_2d":{"lon":11.285684664461938,"lat":44.49915972427539},"codvia":21588,"nomevia":"GIARDINO FABIO FABBI","quartiere":"Borgo Panigale - Reno","tipo":"GIARDINO"}},{"type":"Feature","geometry":{"coordinates":[11.266549740827347,44.52242561996398],"type":"Point"},"properties":{"geo_point_2d":{"lon":11.266549740827347,"lat":44.52242561996398},"codvia":20420,"nomevia":"GIARDINO CLAUDIO DOMINO","quartiere":"Borgo Panigale - Reno","tipo":"GIARDINO"}},{"type":"Feature","geometry":{"coordinates":[11.34857987068702,44.49194880850652],"type":"Point"},"properties":{"geo_point_2d":{"lon":11.34857987068702,"lat":44.49194880850652},"codvia":120,"nomevia":"GIARDINO CLAUDIO ABBADO","quartiere":"Santo Stefano","tipo":"GIARDINO"}},{"type":"Feature","geometry":{"coordinates":[11.357077941426276,44.505372163920576],"type":"Point"},"properties":{"geo_point_2d":{"lon":11.357077941426276,"lat":44.505372163920576},"codvia":34370,"nomevia":"GIARDINO GUALTIERO MANDRIOLI","quartiere":"San Donato - San Vitale","tipo":"GIARDINO"}},{"type":"Feature","geometry":{"coordinates":[11.34559579077149,44.525295889097684],"type":"Point"},"properties":{"geo_point_2d":{"lon":11.34559579077149,"lat":44.525295889097684},"codvia":33060,"nomevia":"GIARDINO MAESTRE DI MONTE SOLE","quartiere":"Navile","tipo":"GIARDINO"}},{"type":"Feature","geometry":{"coordinates":[11.287645830091215,44.513717674673345],"type":"Point"},"properties":{"geo_point_2d":{"lon":11.287645830091215,"lat":44.513717674673345},"codvia":7985,"nomevia":"PARCO PIERANGELO BERTOLI","quartiere":"Borgo Panigale - Reno","tipo":"PARCO"}},{"type":"Feature","geometry":{"coordinates":[11.365157954146605,44.52867479020718],"type":"Point"},"properties":{"geo_point_2d":{"lon":11.365157954146605,"lat":44.52867479020718},"codvia":20445,"nomevia":"GIARDINO DON DARIO MALAGUTI","quartiere":"Navile","tipo":"GIARDINO"}},{"type":"Feature","geometry":{"coordinates":[11.362443402216467,44.50594763156263],"type":"Point"},"properties":{"geo_point_2d":{"lon":11.362443402216467,"lat":44.50594763156263},"codvia":44340,"nomevia":"GIARDINO FRANCO PASELLI","quartiere":"San Donato - San Vitale","tipo":"GIARDINO"}},{"type":"Feature","geometry":{"coordinates":[11.33091869320405,44.50109118972105],"type":"Point"},"properties":{"geo_point_2d":{"lon":11.33091869320405,"lat":44.50109118972105},"codvia":13910,"nomevia":"GIARDINO STEFANO CASAGRANDE","quartiere":"Porto - Saragozza","tipo":"GIARDINO"}},{"type":"Feature","geometry":{"coordinates":[11.303671947821458,44.51109513527319],"type":"Point"},"properties":{"geo_point_2d":{"lon":11.303671947821458,"lat":44.51109513527319},"codvia":61690,"nomevia":"GIARDINO FARPI VIGNOLI","quartiere":"Borgo Panigale - Reno","tipo":"GIARDINO"}},{"type":"Feature","geometry":{"coordinates":[11.38882968476777,44.50752544438252],"type":"Point"},"properties":{"geo_point_2d":{"lon":11.38882968476777,"lat":44.50752544438252},"codvia":62770,"nomevia":"GIARDINO AURELIA ZAMA","quartiere":"San Donato - San Vitale","tipo":"GIARDINO"}},{"type":"Feature","geometry":{"coordinates":[11.372200052656023,44.498719571179535],"type":"Point"},"properties":{"geo_point_2d":{"lon":11.372200052656023,"lat":44.498719571179535},"codvia":49770,"nomevia":"GIARDINO ZELINDA RESCA","quartiere":"San Donato - San Vitale","tipo":"GIARDINO"}},{"type":"Feature","geometry":{"coordinates":[11.314546755111751,44.5029517095199],"type":"Point"},"properties":{"geo_point_2d":{"lon":11.314546755111751,"lat":44.5029517095199},"codvia":62190,"nomevia":"GIARDINO VITTIME INNOCENTI DI TUTTE LE MAFIE","quartiere":"Porto - Saragozza","tipo":"GIARDINO"}},{"type":"Feature","geometry":{"coordinates":[11.38159126769887,44.48132293706949],"type":"Point"},"properties":{"geo_point_2d":{"lon":11.38159126769887,"lat":44.48132293706949},"codvia":19010,"nomevia":"GIARDINO VITTORINA DAL MONTE","quartiere":"Savena","tipo":"GIARDINO"}},{"type":"Feature","geometry":{"coordinates":[11.3879119328699,44.50858544162372],"type":"Point"},"properties":{"geo_point_2d":{"lon":11.3879119328699,"lat":44.50858544162372},"codvia":61260,"nomevia":"GIARDINO PENELOPE VERONESI","quartiere":"San Donato - San Vitale","tipo":"GIARDINO"}},{"type":"Feature","geometry":{"coordinates":[11.366224477720527,44.4930213821146],"type":"Point"},"properties":{"geo_point_2d":{"lon":11.366224477720527,"lat":44.4930213821146},"codvia":47170,"nomevia":"GIARDINO PONTE FOSSA CAVALLINA","quartiere":"San Donato - San Vitale","tipo":"GIARDINO"}},{"type":"Feature","geometry":{"coordinates":[11.367606405774795,44.493678500041256],"type":"Point"},"properties":{"geo_point_2d":{"lon":11.367606405774795,"lat":44.493678500041256},"codvia":8380,"nomevia":"GIARDINO ORESTE BIAVATI","quartiere":"San Donato - San Vitale","tipo":"GIARDINO"}},{"type":"Feature","geometry":{"coordinates":[11.388391865397852,44.49846574300162],"type":"Point"},"properties":{"geo_point_2d":{"lon":11.388391865397852,"lat":44.49846574300162},"codvia":55790,"nomevia":"PARCO DELLO SPIRAGLIO","quartiere":"San Donato - San Vitale","tipo":"PARCO"}},{"type":"Feature","geometry":{"coordinates":[11.37012799852156,44.457483301725844],"type":"Point"},"properties":{"geo_point_2d":{"lon":11.37012799852156,"lat":44.457483301725844},"codvia":5630,"nomevia":"GIARDINO MARCO WALTER BATTACCHI","quartiere":"Savena","tipo":"GIARDINO"}},{"type":"Feature","geometry":{"coordinates":[11.30208075772551,44.49303347287674],"type":"Point"},"properties":{"geo_point_2d":{"lon":11.30208075772551,"lat":44.49303347287674},"codvia":54340,"nomevia":"GIARDINO DI VILLA SERENA","quartiere":"Borgo Panigale - Reno","tipo":"GIARDINO"}},{"type":"Feature","geometry":{"coordinates":[11.360693987225677,44.51087743707984],"type":"Point"},"properties":{"geo_point_2d":{"lon":11.360693987225677,"lat":44.51087743707984},"codvia":31140,"nomevia":"GIARDINO LE CORBUSIER","quartiere":"San Donato - San Vitale","tipo":"GIARDINO"}},{"type":"Feature","geometry":{"coordinates":[11.330609979112882,44.510297463478544],"type":"Point"},"properties":{"geo_point_2d":{"lon":11.330609979112882,"lat":44.510297463478544},"codvia":30355,"nomevia":"GIARDINO MELVIN JONES","quartiere":"Navile","tipo":"GIARDINO"}},{"type":"Feature","geometry":{"coordinates":[11.387507517757713,44.48411374321685],"type":"Point"},"properties":{"geo_point_2d":{"lon":11.387507517757713,"lat":44.48411374321685},"codvia":36980,"nomevia":"GIARDINO CAMELIA MATATIA","quartiere":"Savena","tipo":"GIARDINO"}},{"type":"Feature","geometry":{"coordinates":[11.288574960084548,44.493054760183725],"type":"Point"},"properties":{"geo_point_2d":{"lon":11.288574960084548,"lat":44.493054760183725},"codvia":41440,"nomevia":"GIARDINO TERESA NOCE","quartiere":"Borgo Panigale - Reno","tipo":"GIARDINO"}},{"type":"Feature","geometry":{"coordinates":[11.354317543070037,44.447870486125026],"type":"Point"},"properties":{"geo_point_2d":{"lon":11.354317543070037,"lat":44.447870486125026},"codvia":43490,"nomevia":"PARCO DEL PALEOTTO","quartiere":"Savena","tipo":"PARCO"}},{"type":"Feature","geometry":{"coordinates":[11.357654741539,44.50467368947651],"type":"Point"},"properties":{"geo_point_2d":{"lon":11.357654741539,"lat":44.50467368947651},"codvia":44220,"nomevia":"GIARDINO CHARLIE PARKER","quartiere":"San Donato - San Vitale","tipo":"GIARDINO"}},{"type":"Feature","geometry":{"coordinates":[11.382896976907555,44.47810925430288],"type":"Point"},"properties":{"geo_point_2d":{"lon":11.382896976907555,"lat":44.47810925430288},"codvia":44280,"nomevia":"GIARDINO PARTIGIANI DEL PONTEVECCHIO","quartiere":"Savena","tipo":"GIARDINO"}},{"type":"Feature","geometry":{"coordinates":[11.309330258389323,44.48180025894003],"type":"Point"},"properties":{"geo_point_2d":{"lon":11.309330258389323,"lat":44.48180025894003},"codvia":44710,"nomevia":"PARCO DI SAN PELLEGRINO","quartiere":"Porto - Saragozza","tipo":"PARCO"}},{"type":"Feature","geometry":{"coordinates":[11.338426926282517,44.497510160593556],"type":"Point"},"properties":{"geo_point_2d":{"lon":11.338426926282517,"lat":44.497510160593556},"codvia":46170,"nomevia":"GIARDINO SALVATORE PINCHERLE","quartiere":"Porto - Saragozza","tipo":"GIARDINO"}},{"type":"Feature","geometry":{"coordinates":[11.382676334856491,44.468129589861675],"type":"Point"},"properties":{"geo_point_2d":{"lon":11.382676334856491,"lat":44.468129589861675},"codvia":230,"nomevia":"GIARDINO DOMENICO ACERBI","quartiere":"Savena","tipo":"GIARDINO"}},{"type":"Feature","geometry":{"coordinates":[11.332170691918964,44.511224550726396],"type":"Point"},"properties":{"geo_point_2d":{"lon":11.332170691918964,"lat":44.511224550726396},"codvia":2180,"nomevia":"PARCO DI VILLA ANGELETTI","quartiere":"Navile","tipo":"PARCO"}},{"type":"Feature","geometry":{"coordinates":[11.277502901047324,44.507914474197435],"type":"Point"},"properties":{"geo_point_2d":{"lon":11.277502901047324,"lat":44.507914474197435},"codvia":48820,"nomevia":"PARCO DELLE QUERCE","quartiere":"Borgo Panigale - Reno","tipo":"PARCO"}},{"type":"Feature","geometry":{"coordinates":[11.344322777975282,44.48757567433735],"type":"Point"},"properties":{"geo_point_2d":{"lon":11.344322777975282,"lat":44.48757567433735},"codvia":3690,"nomevia":"GIARDINO SALVO D'ACQUISTO","quartiere":"Santo Stefano","tipo":"GIARDINO"}},{"type":"Feature","geometry":{"coordinates":[11.301251191557217,44.48990666439386],"type":"Point"},"properties":{"geo_point_2d":{"lon":11.301251191557217,"lat":44.48990666439386},"codvia":4090,"nomevia":"PARCO ROBERT E OLAVE BADEN POWELL","quartiere":"Porto - Saragozza","tipo":"PARCO"}},{"type":"Feature","geometry":{"coordinates":[11.316827178196078,44.48640197882382],"type":"Point"},"properties":{"geo_point_2d":{"lon":11.316827178196078,"lat":44.48640197882382},"codvia":4980,"nomevia":"PARCO DEL BARONE RAMPANTE","quartiere":"Porto - Saragozza","tipo":"PARCO"}},{"type":"Feature","geometry":{"coordinates":[11.399523168826818,44.5118824538147],"type":"Point"},"properties":{"geo_point_2d":{"lon":11.399523168826818,"lat":44.5118824538147},"codvia":53710,"nomevia":"GIARDINO OMERO SCHIASSI","quartiere":"San Donato - San Vitale","tipo":"GIARDINO"}},{"type":"Feature","geometry":{"coordinates":[11.38373222488146,44.470854305803925],"type":"Point"},"properties":{"geo_point_2d":{"lon":11.38373222488146,"lat":44.470854305803925},"codvia":9780,"nomevia":"GIARDINO ENRICO BOSCHI","quartiere":"Savena","tipo":"GIARDINO"}},{"type":"Feature","geometry":{"coordinates":[11.327661037469124,44.520549473864904],"type":"Point"},"properties":{"geo_point_2d":{"lon":11.327661037469124,"lat":44.520549473864904},"codvia":10430,"nomevia":"GIARDINO CARLO BROSCHI","quartiere":"Navile","tipo":"GIARDINO"}},{"type":"Feature","geometry":{"coordinates":[11.300412218443206,44.512693188568974],"type":"Point"},"properties":{"geo_point_2d":{"lon":11.300412218443206,"lat":44.512693188568974},"codvia":55120,"nomevia":"PARCO ORLANDO SIROLA","quartiere":"Borgo Panigale - Reno","tipo":"PARCO"}},{"type":"Feature","geometry":{"coordinates":[11.361707876540187,44.502622294926105],"type":"Point"},"properties":{"geo_point_2d":{"lon":11.361707876540187,"lat":44.502622294926105},"codvia":55130,"nomevia":"GIARDINO ALBERTO SITTA","quartiere":"San Donato - San Vitale","tipo":"GIARDINO"}},{"type":"Feature","geometry":{"coordinates":[11.355456298206477,44.49494913648133],"type":"Point"},"properties":{"geo_point_2d":{"lon":11.355456298206477,"lat":44.49494913648133},"codvia":17720,"nomevia":"GIARDINO DON TULLIO CONTIERO","quartiere":"Santo Stefano","tipo":"GIARDINO"}},{"type":"Feature","geometry":{"coordinates":[11.355997211571168,44.51354741159033],"type":"Point"},"properties":{"geo_point_2d":{"lon":11.355997211571168,"lat":44.51354741159033},"codvia":4590,"nomevia":"GIARDINO AURELIO BARBALONGA","quartiere":"Navile","tipo":"GIARDINO"}},{"type":"Feature","geometry":{"coordinates":[11.354234794087843,44.51170772041666],"type":"Point"},"properties":{"geo_point_2d":{"lon":11.354234794087843,"lat":44.51170772041666},"codvia":7620,"nomevia":"GIARDINO GIOVANNI BERSANI","quartiere":"Navile","tipo":"GIARDINO"}},{"type":"Feature","geometry":{"coordinates":[11.31622788639431,44.42225756718419],"type":"Point"},"properties":{"geo_point_2d":{"lon":11.31622788639431,"lat":44.42225756718419},"codvia":11390,"nomevia":"PARCO DEI CALANCHI DI SABBIUNO","quartiere":"Santo Stefano","tipo":"PARCO"}},{"type":"Feature","geometry":{"coordinates":[11.357300001974403,44.4877550749134],"type":"Point"},"properties":{"geo_point_2d":{"lon":11.357300001974403,"lat":44.4877550749134},"codvia":13090,"nomevia":"GIARDINO DI CASA CARDUCCI","quartiere":"Santo Stefano","tipo":"GIARDINO"}},{"type":"Feature","geometry":{"coordinates":[11.361272197542293,44.487514506091024],"type":"Point"},"properties":{"geo_point_2d":{"lon":11.361272197542293,"lat":44.487514506091024},"codvia":13420,"nomevia":"GIARDINO PADRE ERNESTO CAROLI","quartiere":"Santo Stefano","tipo":"GIARDINO"}},{"type":"Feature","geometry":{"coordinates":[11.350462445792045,44.53306832448856],"type":"Point"},"properties":{"geo_point_2d":{"lon":11.350462445792045,"lat":44.53306832448856},"codvia":58730,"nomevia":"GIARDINO ANGELO TOSELLI","quartiere":"Navile","tipo":"GIARDINO"}},{"type":"Feature","geometry":{"coordinates":[11.314199741193441,44.5005233223858],"type":"Point"},"properties":{"geo_point_2d":{"lon":11.314199741193441,"lat":44.5005233223858},"codvia":60620,"nomevia":"GIARDINO DEL VELODROMO","quartiere":"Porto - Saragozza","tipo":"GIARDINO"}},{"type":"Feature","geometry":{"coordinates":[11.354131692313484,44.48540620491991],"type":"Point"},"properties":{"geo_point_2d":{"lon":11.354131692313484,"lat":44.48540620491991},"codvia":61280,"nomevia":"GIARDINO SANTA TERESA VERZERI","quartiere":"Santo Stefano","tipo":"GIARDINO"}},{"type":"Feature","geometry":{"coordinates":[11.318458819550804,44.52536307134464],"type":"Point"},"properties":{"geo_point_2d":{"lon":11.318458819550804,"lat":44.52536307134464},"codvia":30120,"nomevia":"GIARDINO SARAH JAY","quartiere":"Navile","tipo":"GIARDINO"}},{"type":"Feature","geometry":{"coordinates":[11.279914045494523,44.51796709919692],"type":"Point"},"properties":{"geo_point_2d":{"lon":11.279914045494523,"lat":44.51796709919692},"codvia":30370,"nomevia":"GIARDINO DEGLI IPPOCASTANI","quartiere":"Borgo Panigale - Reno","tipo":"GIARDINO"}},{"type":"Feature","geometry":{"coordinates":[11.335513429438233,44.50216033770568],"type":"Point"},"properties":{"geo_point_2d":{"lon":11.335513429438233,"lat":44.50216033770568},"codvia":30610,"nomevia":"GIARDINO JOHN KLEMLEN","quartiere":"Porto - Saragozza","tipo":"GIARDINO"}},{"type":"Feature","geometry":{"coordinates":[11.389493262033088,44.471900578826244],"type":"Point"},"properties":{"geo_point_2d":{"lon":11.389493262033088,"lat":44.471900578826244},"codvia":31190,"nomevia":"GIARDINO LEGNANO FOLGORE FRIULI","quartiere":"Savena","tipo":"GIARDINO"}},{"type":"Feature","geometry":{"coordinates":[11.376740154370053,44.48619665236683],"type":"Point"},"properties":{"geo_point_2d":{"lon":11.376740154370053,"lat":44.48619665236683},"codvia":32730,"nomevia":"GIARDINO NINO LUCCARINI","quartiere":"Savena","tipo":"GIARDINO"}},{"type":"Feature","geometry":{"coordinates":[11.372219467474347,44.48046435114831],"type":"Point"},"properties":{"geo_point_2d":{"lon":11.372219467474347,"lat":44.48046435114831},"codvia":32790,"nomevia":"GIARDINO LUNETTA GAMBERINI","quartiere":"Santo Stefano","tipo":"GIARDINO"}},{"type":"Feature","geometry":{"coordinates":[11.333120112117811,44.51797895452136],"type":"Point"},"properties":{"geo_point_2d":{"lon":11.333120112117811,"lat":44.51797895452136},"codvia":35590,"nomevia":"GIARDINO MARINAI D'ITALIA","quartiere":"Navile","tipo":"GIARDINO"}},{"type":"Feature","geometry":{"coordinates":[11.393336753785643,44.5112184843532],"type":"Point"},"properties":{"geo_point_2d":{"lon":11.393336753785643,"lat":44.5112184843532},"codvia":38960,"nomevia":"PARCO MAURO MITILINI ANDREA MONETA OTELLO STEFANINI","quartiere":"San Donato - San Vitale","tipo":"PARCO"}},{"type":"Feature","geometry":{"coordinates":[11.365135485196983,44.50068507796554],"type":"Point"},"properties":{"geo_point_2d":{"lon":11.365135485196983,"lat":44.50068507796554},"codvia":39230,"nomevia":"GIARDINO BENJAMIN MOLOISE","quartiere":"San Donato - San Vitale","tipo":"GIARDINO"}},{"type":"Feature","geometry":{"coordinates":[11.344112059926793,44.51751872665607],"type":"Point"},"properties":{"geo_point_2d":{"lon":11.344112059926793,"lat":44.51751872665607},"codvia":40310,"nomevia":"GIARDINO VINCENZO MUCCIOLI","quartiere":"Navile","tipo":"GIARDINO"}},{"type":"Feature","geometry":{"coordinates":[11.321222316010891,44.49077377617269],"type":"Point"},"properties":{"geo_point_2d":{"lon":11.321222316010891,"lat":44.49077377617269},"codvia":40410,"nomevia":"GIARDINO GIORDANO MURATORI","quartiere":"Porto - Saragozza","tipo":"GIARDINO"}},{"type":"Feature","geometry":{"coordinates":[11.32094374695775,44.524993849148615],"type":"Point"},"properties":{"geo_point_2d":{"lon":11.32094374695775,"lat":44.524993849148615},"codvia":63130,"nomevia":"GIARDINO MEDEA ZANARDI","quartiere":"Navile","tipo":"GIARDINO"}},{"type":"Feature","geometry":{"coordinates":[11.353254328087399,44.50867487994717],"type":"Point"},"properties":{"geo_point_2d":{"lon":11.353254328087399,"lat":44.50867487994717},"codvia":59410,"nomevia":"GIARDINO GUSTAVO TROMBETTI","quartiere":"Navile","tipo":"GIARDINO"}},{"type":"Feature","geometry":{"coordinates":[11.277606666473455,44.50290526031062],"type":"Point"},"properties":{"geo_point_2d":{"lon":11.277606666473455,"lat":44.50290526031062},"codvia":38830,"nomevia":"GIARDINO SORELLE MIRABAL","quartiere":"Borgo Panigale - Reno","tipo":"GIARDINO"}},{"type":"Feature","geometry":{"coordinates":[11.371229011443551,44.49606481955319],"type":"Point"},"properties":{"geo_point_2d":{"lon":11.371229011443551,"lat":44.49606481955319},"codvia":10110,"nomevia":"GIARDINO PADRE GIOVANNI BREVI","quartiere":"San Donato - San Vitale","tipo":"GIARDINO"}},{"type":"Feature","geometry":{"coordinates":[11.337538679450306,44.52001388250895],"type":"Point"},"properties":{"geo_point_2d":{"lon":11.337538679450306,"lat":44.52001388250895},"codvia":61720,"nomevia":"PARCO DI VILLA GROSSO","quartiere":"Navile","tipo":"PARCO"}},{"type":"Feature","geometry":{"coordinates":[11.35123104465334,44.52607631266156],"type":"Point"},"properties":{"geo_point_2d":{"lon":11.35123104465334,"lat":44.52607631266156},"codvia":14190,"nomevia":"PARCO DELLE CASERME ROSSE","quartiere":"Navile","tipo":"PARCO"}},{"type":"Feature","geometry":{"coordinates":[11.37495177769829,44.48854249790212],"type":"Point"},"properties":{"geo_point_2d":{"lon":11.37495177769829,"lat":44.48854249790212},"codvia":34670,"nomevia":"GIARDINO MARIO MARAGI","quartiere":"San Donato - San Vitale","tipo":"GIARDINO"}},{"type":"Feature","geometry":{"coordinates":[11.359718882336898,44.52805001212819],"type":"Point"},"properties":{"geo_point_2d":{"lon":11.359718882336898,"lat":44.52805001212819},"codvia":48840,"nomevia":"GIARDINO ITZHAK RABIN","quartiere":"Navile","tipo":"GIARDINO"}},{"type":"Feature","geometry":{"coordinates":[11.331770658651141,44.51446857648231],"type":"Point"},"properties":{"geo_point_2d":{"lon":11.331770658651141,"lat":44.51446857648231},"codvia":35630,"nomevia":"PARCO LUNETTA MARIOTTI","quartiere":"Navile","tipo":"PARCO"}},{"type":"Feature","geometry":{"coordinates":[11.378521005601973,44.508001116507195],"type":"Point"},"properties":{"geo_point_2d":{"lon":11.378521005601973,"lat":44.508001116507195},"codvia":9420,"nomevia":"GIARDINO VALENTINO BORGIA","quartiere":"San Donato - San Vitale","tipo":"GIARDINO"}},{"type":"Feature","geometry":{"coordinates":[11.378024995186836,44.461619117491786],"type":"Point"},"properties":{"geo_point_2d":{"lon":11.378024995186836,"lat":44.461619117491786},"codvia":1870,"nomevia":"PARCO CORRADO ALVARO","quartiere":"Savena","tipo":"PARCO"}},{"type":"Feature","geometry":{"coordinates":[11.385794894569212,44.471981661894766],"type":"Point"},"properties":{"geo_point_2d":{"lon":11.385794894569212,"lat":44.471981661894766},"codvia":61630,"nomevia":"GIARDINO RENATA VIGANO'","quartiere":"Savena","tipo":"GIARDINO"}},{"type":"Feature","geometry":{"coordinates":[11.314131576993994,44.4895554568618],"type":"Point"},"properties":{"geo_point_2d":{"lon":11.314131576993994,"lat":44.4895554568618},"codvia":61740,"nomevia":"GIARDINO DI VILLA DELLE ROSE","quartiere":"Porto - Saragozza","tipo":"GIARDINO"}},{"type":"Feature","geometry":{"coordinates":[11.375004813330664,44.485901907057325],"type":"Point"},"properties":{"geo_point_2d":{"lon":11.375004813330664,"lat":44.485901907057325},"codvia":62670,"nomevia":"GIARDINO ARPAD WEISZ","quartiere":"San Donato - San Vitale","tipo":"GIARDINO"}},{"type":"Feature","geometry":{"coordinates":[11.312997660451193,44.49216744834179],"type":"Point"},"properties":{"geo_point_2d":{"lon":11.312997660451193,"lat":44.49216744834179},"codvia":18740,"nomevia":"GIARDINO ALDO CUCCHI","quartiere":"Porto - Saragozza","tipo":"GIARDINO"}},{"type":"Feature","geometry":{"coordinates":[11.330745600714302,44.49959212165458],"type":"Point"},"properties":{"geo_point_2d":{"lon":11.330745600714302,"lat":44.49959212165458},"codvia":19320,"nomevia":"GIARDINO DECORATO VALORE CIVILE","quartiere":"Porto - Saragozza","tipo":"GIARDINO"}},{"type":"Feature","geometry":{"coordinates":[11.381066438140207,44.47158112203387],"type":"Point"},"properties":{"geo_point_2d":{"lon":11.381066438140207,"lat":44.47158112203387},"codvia":21630,"nomevia":"GIARDINO VALENTINO FACCHINI","quartiere":"Savena","tipo":"GIARDINO"}},{"type":"Feature","geometry":{"coordinates":[11.367893478326689,44.49962191769901],"type":"Point"},"properties":{"geo_point_2d":{"lon":11.367893478326689,"lat":44.49962191769901},"codvia":22460,"nomevia":"GIARDINO QUINTO FERRARI","quartiere":"San Donato - San Vitale","tipo":"GIARDINO"}},{"type":"Feature","geometry":{"coordinates":[11.301936392849944,44.50072310721965],"type":"Point"},"properties":{"geo_point_2d":{"lon":11.301936392849944,"lat":44.50072310721965},"codvia":24720,"nomevia":"GIARDINO GICHIN FUNAKOSHI","quartiere":"Borgo Panigale - Reno","tipo":"GIARDINO"}},{"type":"Feature","geometry":{"coordinates":[11.291238809240197,44.498450583228184],"type":"Point"},"properties":{"geo_point_2d":{"lon":11.291238809240197,"lat":44.498450583228184},"codvia":25080,"nomevia":"PARCO DELCISA GALLARANI","quartiere":"Borgo Panigale - Reno","tipo":"PARCO"}},{"type":"Feature","geometry":{"coordinates":[11.317080847130425,44.4978949300368],"type":"Point"},"properties":{"geo_point_2d":{"lon":11.317080847130425,"lat":44.4978949300368},"codvia":25820,"nomevia":"GIARDINO GARIBALDINI DI SPAGNA","quartiere":"Porto - Saragozza","tipo":"GIARDINO"}},{"type":"Feature","geometry":{"coordinates":[11.328389620497752,44.500597795933494],"type":"Point"},"properties":{"geo_point_2d":{"lon":11.328389620497752,"lat":44.500597795933494},"codvia":9610,"nomevia":"GIARDINO ALDO BORGONZONI","quartiere":"Porto - Saragozza","tipo":"GIARDINO"}},{"type":"Feature","geometry":{"coordinates":[11.39950229560338,44.49018590876403],"type":"Point"},"properties":{"geo_point_2d":{"lon":11.39950229560338,"lat":44.49018590876403},"codvia":17815,"nomevia":"GIARDINO NOVELLA CORAZZA","quartiere":"San Donato - San Vitale","tipo":"GIARDINO"}},{"type":"Feature","geometry":{"coordinates":[11.367636101638714,44.482964622404594],"type":"Point"},"properties":{"geo_point_2d":{"lon":11.367636101638714,"lat":44.482964622404594},"codvia":39820,"nomevia":"GIARDINO MARIA MONTESSORI","quartiere":"Santo Stefano","tipo":"GIARDINO"}},{"type":"Feature","geometry":{"coordinates":[11.312218244130234,44.50507490940804],"type":"Point"},"properties":{"geo_point_2d":{"lon":11.312218244130234,"lat":44.50507490940804},"codvia":1670,"nomevia":"GIARDINO ILARIA ALPI","quartiere":"Porto - Saragozza","tipo":"GIARDINO"}},{"type":"Feature","geometry":{"coordinates":[11.333232187733444,44.52248800447376],"type":"Point"},"properties":{"geo_point_2d":{"lon":11.333232187733444,"lat":44.52248800447376},"codvia":15040,"nomevia":"GIARDINO GIUSEPPINA CATTANI","quartiere":"Navile","tipo":"GIARDINO"}},{"type":"Feature","geometry":{"coordinates":[11.279824381761358,44.49711908037615],"type":"Point"},"properties":{"geo_point_2d":{"lon":11.279824381761358,"lat":44.49711908037615},"codvia":6260,"nomevia":"PARCO DELLE ARTISTE","quartiere":"Borgo Panigale - Reno","tipo":"PARCO"}},{"type":"Feature","geometry":{"coordinates":[11.329203302570848,44.48959525154135],"type":"Point"},"properties":{"geo_point_2d":{"lon":11.329203302570848,"lat":44.48959525154135},"codvia":14170,"nomevia":"GIARDINO DI VILLA CASSARINI","quartiere":"Porto - Saragozza","tipo":"GIARDINO"}},{"type":"Feature","geometry":{"coordinates":[11.353951767163883,44.53454860371897],"type":"Point"},"properties":{"geo_point_2d":{"lon":11.353951767163883,"lat":44.53454860371897},"codvia":59170,"nomevia":"GIARDINO 3 OTTOBRE 2013 GIORNATA NAZIONALE IN MEMORIA DELLE VITTIME DELL'IMMIGRAZIONE","quartiere":"Navile","tipo":"GIARDINO"}},{"type":"Feature","geometry":{"coordinates":[11.385797248394079,44.48424394719523],"type":"Point"},"properties":{"geo_point_2d":{"lon":11.385797248394079,"lat":44.48424394719523},"codvia":62425,"nomevia":"GIARDINO GEMMA VOLLI E BIANCA COLBI FINZI","quartiere":"Savena","tipo":"GIARDINO"}},{"type":"Feature","geometry":{"coordinates":[11.356905083021562,44.53312920004562],"type":"Point"},"properties":{"geo_point_2d":{"lon":11.356905083021562,"lat":44.53312920004562},"codvia":1985,"nomevia":"GIARDINO GIORGIO AMBROSOLI","quartiere":"Navile","tipo":"GIARDINO"}},{"type":"Feature","geometry":{"coordinates":[11.291486975235571,44.49477304134435],"type":"Point"},"properties":{"geo_point_2d":{"lon":11.291486975235571,"lat":44.49477304134435},"codvia":56887,"nomevia":"GIARDINO VITTORINA TAROZZI","quartiere":"Borgo Panigale - Reno","tipo":"GIARDINO"}},{"type":"Feature","geometry":{"coordinates":[11.28989774419234,44.49706065590439],"type":"Point"},"properties":{"geo_point_2d":{"lon":11.28989774419234,"lat":44.49706065590439},"codvia":20063,"nomevia":"GIARDINO IPAZIA DI ALESSANDRIA","quartiere":"Borgo Panigale - Reno","tipo":"GIARDINO"}},{"type":"Feature","geometry":{"coordinates":[11.311288476057785,44.495288136300125],"type":"Point"},"properties":{"geo_point_2d":{"lon":11.311288476057785,"lat":44.495288136300125},"codvia":10630,"nomevia":"GIARDINO GIACOMO BULGARELLI","quartiere":"Porto - Saragozza","tipo":"GIARDINO"}},{"type":"Feature","geometry":{"coordinates":[11.386040311414481,44.510410488464835],"type":"Point"},"properties":{"geo_point_2d":{"lon":11.386040311414481,"lat":44.510410488464835},"codvia":3340,"nomevia":"GIARDINO ART. 1 DELLA COSTITUZIONE","quartiere":"San Donato - San Vitale","tipo":"GIARDINO"}},{"type":"Feature","geometry":{"coordinates":[11.304882342781085,44.50836173083333],"type":"Point"},"properties":{"geo_point_2d":{"lon":11.304882342781085,"lat":44.50836173083333},"codvia":52830,"nomevia":"GIARDINO SANTA VIOLA","quartiere":"Borgo Panigale - Reno","tipo":"GIARDINO"}},{"type":"Feature","geometry":{"coordinates":[11.297337451333302,44.52111516509327],"type":"Point"},"properties":{"geo_point_2d":{"lon":11.297337451333302,"lat":44.52111516509327},"codvia":17220,"nomevia":"GIARDINO OTELLO COLLI","quartiere":"Borgo Panigale - Reno","tipo":"GIARDINO"}},{"type":"Feature","geometry":{"coordinates":[11.310715956562952,44.48983311934878],"type":"Point"},"properties":{"geo_point_2d":{"lon":11.310715956562952,"lat":44.48983311934878},"codvia":37610,"nomevia":"GIARDINO DEL MELONCELLO","quartiere":"Porto - Saragozza","tipo":"GIARDINO"}},{"type":"Feature","geometry":{"coordinates":[11.319813839969264,44.53337433481749],"type":"Point"},"properties":{"geo_point_2d":{"lon":11.319813839969264,"lat":44.53337433481749},"codvia":63390,"nomevia":"GIARDINO PRIMO ZECCHI","quartiere":"Navile","tipo":"GIARDINO"}},{"type":"Feature","geometry":{"coordinates":[11.367353181240638,44.50502278334698],"type":"Point"},"properties":{"geo_point_2d":{"lon":11.367353181240638,"lat":44.50502278334698},"codvia":62170,"nomevia":"GIARDINO VITTIME DELLA MINIERA DI MARCINELLE","quartiere":"San Donato - San Vitale","tipo":"GIARDINO"}},{"type":"Feature","geometry":{"coordinates":[11.37271017853978,44.49820635526561],"type":"Point"},"properties":{"geo_point_2d":{"lon":11.37271017853978,"lat":44.49820635526561},"codvia":52170,"nomevia":"GIARDINO DIANA SABBI","quartiere":"San Donato - San Vitale","tipo":"GIARDINO"}},{"type":"Feature","geometry":{"coordinates":[11.369727185656684,44.490832376393634],"type":"Point"},"properties":{"geo_point_2d":{"lon":11.369727185656684,"lat":44.490832376393634},"codvia":55140,"nomevia":"GIARDINO SCIPIO SLATAPER","quartiere":"San Donato - San Vitale","tipo":"GIARDINO"}},{"type":"Feature","geometry":{"coordinates":[11.36055442523102,44.498654357518205],"type":"Point"},"properties":{"geo_point_2d":{"lon":11.36055442523102,"lat":44.498654357518205},"codvia":27810,"nomevia":"GIARDINO LORENZO GIUSTI","quartiere":"San Donato - San Vitale","tipo":"GIARDINO"}},{"type":"Feature","geometry":{"coordinates":[11.385296938512644,44.50779743891326],"type":"Point"},"properties":{"geo_point_2d":{"lon":11.385296938512644,"lat":44.50779743891326},"codvia":2720,"nomevia":"PARCO DELL'ARBORETO","quartiere":"San Donato - San Vitale","tipo":"PARCO"}},{"type":"Feature","geometry":{"coordinates":[11.372460729339329,44.50932308648185],"type":"Point"},"properties":{"geo_point_2d":{"lon":11.372460729339329,"lat":44.50932308648185},"codvia":15220,"nomevia":"GIARDINO FERNANDO CAVALLAZZI","quartiere":"San Donato - San Vitale","tipo":"GIARDINO"}},{"type":"Feature","geometry":{"coordinates":[11.365359629293385,44.50722688605585],"type":"Point"},"properties":{"geo_point_2d":{"lon":11.365359629293385,"lat":44.50722688605585},"codvia":56860,"nomevia":"GIARDINO KENZO TANGE","quartiere":"San Donato - San Vitale","tipo":"GIARDINO"}},{"type":"Feature","geometry":{"coordinates":[11.365653739799901,44.503657917286006],"type":"Point"},"properties":{"geo_point_2d":{"lon":11.365653739799901,"lat":44.503657917286006},"codvia":63460,"nomevia":"GIARDINO GUIDO ZUCCHI","quartiere":"San Donato - San Vitale","tipo":"GIARDINO"}},{"type":"Feature","geometry":{"coordinates":[11.377608259397002,44.49235241369274],"type":"Point"},"properties":{"geo_point_2d":{"lon":11.377608259397002,"lat":44.49235241369274},"codvia":55260,"nomevia":"GIARDINO DIONYSIOS SOLOMOS","quartiere":"San Donato - San Vitale","tipo":"GIARDINO"}},{"type":"Feature","geometry":{"coordinates":[11.35797868563049,44.50814437495905],"type":"Point"},"properties":{"geo_point_2d":{"lon":11.35797868563049,"lat":44.50814437495905},"codvia":54120,"nomevia":"GIARDINO GIORGOS SEFERIS","quartiere":"San Donato - San Vitale","tipo":"GIARDINO"}},{"type":"Feature","geometry":{"coordinates":[11.357349876640063,44.46205323606755],"type":"Point"},"properties":{"geo_point_2d":{"lon":11.357349876640063,"lat":44.46205323606755},"codvia":23170,"nomevia":"GIARDINO RAFFAELE E GIUSEPPE FIORINI","quartiere":"Savena","tipo":"GIARDINO"}},{"type":"Feature","geometry":{"coordinates":[11.3853312893267,44.49703090892263],"type":"Point"},"properties":{"geo_point_2d":{"lon":11.3853312893267,"lat":44.49703090892263},"codvia":39405,"nomevia":"GIARDINO EUGENIO MONTALE","quartiere":"San Donato - San Vitale","tipo":"GIARDINO"}},{"type":"Feature","geometry":{"coordinates":[11.296543342655221,44.50198605893909],"type":"Point"},"properties":{"geo_point_2d":{"lon":11.296543342655221,"lat":44.50198605893909},"codvia":29580,"nomevia":"GIARDINO ERNESTO CHE GUEVARA","quartiere":"Borgo Panigale - Reno","tipo":"GIARDINO"}},{"type":"Feature","geometry":{"coordinates":[11.33604242562604,44.52280147979114],"type":"Point"},"properties":{"geo_point_2d":{"lon":11.33604242562604,"lat":44.52280147979114},"codvia":31885,"nomevia":"PARCO RITA LEVI-MONTALCINI","quartiere":"Navile","tipo":"PARCO"}},{"type":"Feature","geometry":{"coordinates":[11.379967419288421,44.48553610575492],"type":"Point"},"properties":{"geo_point_2d":{"lon":11.379967419288421,"lat":44.48553610575492},"codvia":3180,"nomevia":"GIARDINO GAETANO ARMAROLI","quartiere":"Savena","tipo":"GIARDINO"}},{"type":"Feature","geometry":{"coordinates":[11.34994913714608,44.51792159952913],"type":"Point"},"properties":{"geo_point_2d":{"lon":11.34994913714608,"lat":44.51792159952913},"codvia":42530,"nomevia":"GIARDINO QUINTO ORSI","quartiere":"Navile","tipo":"GIARDINO"}},{"type":"Feature","geometry":{"coordinates":[11.288314367703219,44.49395090768849],"type":"Point"},"properties":{"geo_point_2d":{"lon":11.288314367703219,"lat":44.49395090768849},"codvia":37060,"nomevia":"GIARDINO TERESA MATTEI","quartiere":"Borgo Panigale - Reno","tipo":"GIARDINO"}},{"type":"Feature","geometry":{"coordinates":[11.372402573542184,44.4908451264023],"type":"Point"},"properties":{"geo_point_2d":{"lon":11.372402573542184,"lat":44.4908451264023},"codvia":41580,"nomevia":"GIARDINO DOMENICO M. NOVARA","quartiere":"San Donato - San Vitale","tipo":"GIARDINO"}},{"type":"Feature","geometry":{"coordinates":[11.281392448409624,44.511052509287374],"type":"Point"},"properties":{"geo_point_2d":{"lon":11.281392448409624,"lat":44.511052509287374},"codvia":42090,"nomevia":"GIARDINO DEGLI OLMI","quartiere":"Borgo Panigale - Reno","tipo":"GIARDINO"}},{"type":"Feature","geometry":{"coordinates":[11.309915796196021,44.498431580210806],"type":"Point"},"properties":{"geo_point_2d":{"lon":11.309915796196021,"lat":44.498431580210806},"codvia":45020,"nomevia":"GIARDINO PERSEGUITATI ANTIFASCISTI","quartiere":"Borgo Panigale - Reno","tipo":"GIARDINO"}},{"type":"Feature","geometry":{"coordinates":[11.383282330271982,44.48570726892461],"type":"Point"},"properties":{"geo_point_2d":{"lon":11.383282330271982,"lat":44.48570726892461},"codvia":46220,"nomevia":"GIARDINO ANTONIO IVAN PINI","quartiere":"Savena","tipo":"GIARDINO"}},{"type":"Feature","geometry":{"coordinates":[11.376802706917664,44.4645832181123],"type":"Point"},"properties":{"geo_point_2d":{"lon":11.376802706917664,"lat":44.4645832181123},"codvia":46420,"nomevia":"GIARDINO EDMEA PIRAMI","quartiere":"Savena","tipo":"GIARDINO"}},{"type":"Feature","geometry":{"coordinates":[11.381506578080344,44.46642529053935],"type":"Point"},"properties":{"geo_point_2d":{"lon":11.381506578080344,"lat":44.46642529053935},"codvia":1470,"nomevia":"GIARDINO EMILIO ALESSANDRINI","quartiere":"Savena","tipo":"GIARDINO"}},{"type":"Feature","geometry":{"coordinates":[11.366386334076589,44.50427075208118],"type":"Point"},"properties":{"geo_point_2d":{"lon":11.366386334076589,"lat":44.50427075208118},"codvia":7030,"nomevia":"GIARDINO RENATO BENTIVOGLI","quartiere":"San Donato - San Vitale","tipo":"GIARDINO"}},{"type":"Feature","geometry":{"coordinates":[11.353248875550491,44.51602952550003],"type":"Point"},"properties":{"geo_point_2d":{"lon":11.353248875550491,"lat":44.51602952550003},"codvia":51440,"nomevia":"GIARDINO GUIDO ROSSA","quartiere":"Navile","tipo":"GIARDINO"}},{"type":"Feature","geometry":{"coordinates":[11.340897277974559,44.48353413370187],"type":"Point"},"properties":{"geo_point_2d":{"lon":11.340897277974559,"lat":44.48353413370187},"codvia":53980,"nomevia":"GIARDINO REMO SCOTO","quartiere":"Santo Stefano","tipo":"GIARDINO"}},{"type":"Feature","geometry":{"coordinates":[11.361454222548735,44.50845056538452],"type":"Point"},"properties":{"geo_point_2d":{"lon":11.361454222548735,"lat":44.50845056538452},"codvia":9810,"nomevia":"PARCO DON GIOVANNI BOSCO","quartiere":"San Donato - San Vitale","tipo":"PARCO"}},{"type":"Feature","geometry":{"coordinates":[11.360612108305592,44.495486723582154],"type":"Point"},"properties":{"geo_point_2d":{"lon":11.360612108305592,"lat":44.495486723582154},"codvia":56460,"nomevia":"GIARDINO GIANCARLO SUSINI","quartiere":"San Donato - San Vitale","tipo":"GIARDINO"}},{"type":"Feature","geometry":{"coordinates":[11.284176326435643,44.50799892963315],"type":"Point"},"properties":{"geo_point_2d":{"lon":11.284176326435643,"lat":44.50799892963315},"codvia":17910,"nomevia":"GIARDINO MARIO CORSINI","quartiere":"Borgo Panigale - Reno","tipo":"GIARDINO"}},{"type":"Feature","geometry":{"coordinates":[11.350828213270251,44.51362188395367],"type":"Point"},"properties":{"geo_point_2d":{"lon":11.350828213270251,"lat":44.51362188395367},"codvia":62920,"nomevia":"GIARDINO GUIDO ZAMBONI","quartiere":"Navile","tipo":"GIARDINO"}},{"type":"Feature","geometry":{"coordinates":[11.401296032172084,44.490692998801755],"type":"Point"},"properties":{"geo_point_2d":{"lon":11.401296032172084,"lat":44.490692998801755},"codvia":37938,"nomevia":"GIARDINO LINA MERLIN","quartiere":"San Donato - San Vitale","tipo":"GIARDINO"}},{"type":"Feature","geometry":{"coordinates":[11.28106455142637,44.500883737679054],"type":"Point"},"properties":{"geo_point_2d":{"lon":11.28106455142637,"lat":44.500883737679054},"codvia":10160,"nomevia":"GIARDINO BRIGATA BOLERO","quartiere":"Borgo Panigale - Reno","tipo":"GIARDINO"}},{"type":"Feature","geometry":{"coordinates":[11.336726838178278,44.49958697519417],"type":"Point"},"properties":{"geo_point_2d":{"lon":11.336726838178278,"lat":44.49958697519417},"codvia":59680,"nomevia":"PARCO 11 SETTEMBRE 2001","quartiere":"Porto - Saragozza","tipo":"PARCO"}},{"type":"Feature","geometry":{"coordinates":[11.378411282340808,44.50687574164264],"type":"Point"},"properties":{"geo_point_2d":{"lon":11.378411282340808,"lat":44.50687574164264},"codvia":13920,"nomevia":"GIARDINO DEL CASALONE","quartiere":"San Donato - San Vitale","tipo":"GIARDINO"}}]}